{
  "type": "FeatureCollection",
  "features": [
    {
      "type": "Feature",
      "geometry": {
        "type": "Point",
        "coordinates": [
          -74.03657,
          40.59239
        ]
      },
      "properties": {
        "station_id": "BT01",
        "station_name": "Region 0 Battery Station 1",
        "river_mile": 2.8,
        "region": "Region 0 - Battery",
        "region_name": "Battery",
        "region_code": "BT",
        "region_number": 0,
        "river_mile_range": "0-11",
        "year": 2010,
        "month": 1,
        "day": 1,
        "gear_type": "Ichthyoplankton Net",
        "program": "Long River Survey",
        "taxon_id": "TX-AT",
        "scientific_name": "Microgadus tomcod",
        "common_name": "Atlantic Tomcod",
        "taxonomic_group": "Fish",
        "life_stage": "Egg",
        "sampling_events": 1,
        "biological_records": 1,
        "mean_relative_abundance": 2.06,
        "total_abundance": 0
      }
    },
    {
      "type": "Feature",
      "geometry": {
        "type": "Point",
        "coordinates": [
          -73.99508,
          40.63518
        ]
      },
      "properties": {
        "station_id": "BT02",
        "station_name": "Region 0 Battery Station 2",
        "river_mile": 5.5,
        "region": "Region 0 - Battery",
        "region_name": "Battery",
        "region_code": "BT",
        "region_number": 0,
        "river_mile_range": "0-11",
        "year": 2011,
        "month": 2,
        "day": 6,
        "gear_type": "Beam Trawl",
        "program": "Fall Juvenile Survey",
        "taxon_id": "TX-AS",
        "scientific_name": "Alosa sapidissima",
        "common_name": "American Shad",
        "taxonomic_group": "Fish",
        "life_stage": "Yolk-Sac Larvae",
        "sampling_events": 1,
        "biological_records": 1,
        "mean_relative_abundance": 1.57,
        "total_abundance": 0
      }
    },
    {
      "type": "Feature",
      "geometry": {
        "type": "Point",
        "coordinates": [
          -74.02993,
          40.68034
        ]
      },
      "properties": {
        "station_id": "BT03",
        "station_name": "Region 0 Battery Station 3",
        "river_mile": 8.3,
        "region": "Region 0 - Battery",
        "region_name": "Battery",
        "region_code": "BT",
        "region_number": 0,
        "river_mile_range": "0-11",
        "year": 2012,
        "month": 3,
        "day": 11,
        "gear_type": "Beach Seine",
        "program": "Beach Seine Survey",
        "taxon_id": "TX-SB",
        "scientific_name": "Morone saxatilis",
        "common_name": "Striped Bass",
        "taxonomic_group": "Fish",
        "life_stage": "Post-Yolk-Sac Larvae",
        "sampling_events": 1,
        "biological_records": 1,
        "mean_relative_abundance": 0.24,
        "total_abundance": 0
      }
    },
    {
      "type": "Feature",
      "geometry": {
        "type": "Point",
        "coordinates": [
          -73.9991,
          40.74896
        ]
      },
      "properties": {
        "station_id": "YK01",
        "station_name": "Region 1 Yonkers Station 1",
        "river_mile": 12.7,
        "region": "Region 1 - Yonkers",
        "region_name": "Yonkers",
        "region_code": "YK",
        "region_number": 1,
        "river_mile_range": "12-23",
        "year": 2012,
        "month": 4,
        "day": 2,
        "gear_type": "Beam Trawl",
        "program": "Fall Juvenile Survey",
        "taxon_id": "TX-WP",
        "scientific_name": "Morone americana",
        "common_name": "White Perch",
        "taxonomic_group": "Fish",
        "life_stage": "Yolk-Sac Larvae",
        "sampling_events": 1,
        "biological_records": 1,
        "mean_relative_abundance": 2.71,
        "total_abundance": 0
      }
    },
    {
      "type": "Feature",
      "geometry": {
        "type": "Point",
        "coordinates": [
          -73.95988,
          40.76756
        ]
      },
      "properties": {
        "station_id": "YK02",
        "station_name": "Region 1 Yonkers Station 2",
        "river_mile": 13.5,
        "region": "Region 1 - Yonkers",
        "region_name": "Yonkers",
        "region_code": "YK",
        "region_number": 1,
        "river_mile_range": "12-23",
        "year": 2013,
        "month": 5,
        "day": 7,
        "gear_type": "Beach Seine",
        "program": "Beach Seine Survey",
        "taxon_id": "TX-BA",
        "scientific_name": "Anchoa mitchilli",
        "common_name": "Bay Anchovy",
        "taxonomic_group": "Fish",
        "life_stage": "Post-Yolk-Sac Larvae",
        "sampling_events": 1,
        "biological_records": 1,
        "mean_relative_abundance": 0.73,
        "total_abundance": 0
      }
    },
    {
      "type": "Feature",
      "geometry": {
        "type": "Point",
        "coordinates": [
          -73.99362,
          40.78013
        ]
      },
      "properties": {
        "station_id": "YK03",
        "station_name": "Region 1 Yonkers Station 3",
        "river_mile": 14.2,
        "region": "Region 1 - Yonkers",
        "region_name": "Yonkers",
        "region_code": "YK",
        "region_number": 1,
        "river_mile_range": "12-23",
        "year": 2014,
        "month": 6,
        "day": 12,
        "gear_type": "Ichthyoplankton Net",
        "program": "Long River Survey",
        "taxon_id": "TX-A",
        "scientific_name": "Alosa pseudoharengus",
        "common_name": "Alewife",
        "taxonomic_group": "Fish",
        "life_stage": "Young Of The Year",
        "sampling_events": 1,
        "biological_records": 1,
        "mean_relative_abundance": 1.52,
        "total_abundance": 0
      }
    },
    {
      "type": "Feature",
      "geometry": {
        "type": "Point",
        "coordinates": [
          -73.95092,
          40.79374
        ]
      },
      "properties": {
        "station_id": "YK04",
        "station_name": "Region 1 Yonkers Station 4",
        "river_mile": 14.9,
        "region": "Region 1 - Yonkers",
        "region_name": "Yonkers",
        "region_code": "YK",
        "region_number": 1,
        "river_mile_range": "12-23",
        "year": 2015,
        "month": 7,
        "day": 17,
        "gear_type": "Beam Trawl",
        "program": "Fall Juvenile Survey",
        "taxon_id": "TX-BH",
        "scientific_name": "Alosa aestivalis",
        "common_name": "Blueback Herring",
        "taxonomic_group": "Fish",
        "life_stage": "Yearling",
        "sampling_events": 1,
        "biological_records": 1,
        "mean_relative_abundance": 0.64,
        "total_abundance": 0
      }
    },
    {
      "type": "Feature",
      "geometry": {
        "type": "Point",
        "coordinates": [
          -73.98076,
          40.80753
        ]
      },
      "properties": {
        "station_id": "YK05",
        "station_name": "Region 1 Yonkers Station 5",
        "river_mile": 15.7,
        "region": "Region 1 - Yonkers",
        "region_name": "Yonkers",
        "region_code": "YK",
        "region_number": 1,
        "river_mile_range": "12-23",
        "year": 2016,
        "month": 8,
        "day": 22,
        "gear_type": "Beach Seine",
        "program": "Beach Seine Survey",
        "taxon_id": "TX-RS",
        "scientific_name": "Osmerus mordax",
        "common_name": "Rainbow Smelt",
        "taxonomic_group": "Fish",
        "life_stage": "Adult",
        "sampling_events": 1,
        "biological_records": 1,
        "mean_relative_abundance": 0.8,
        "total_abundance": 0
      }
    },
    {
      "type": "Feature",
      "geometry": {
        "type": "Point",
        "coordinates": [
          -73.93429,
          40.8193
        ]
      },
      "properties": {
        "station_id": "YK06",
        "station_name": "Region 1 Yonkers Station 6",
        "river_mile": 16.4,
        "region": "Region 1 - Yonkers",
        "region_name": "Yonkers",
        "region_code": "YK",
        "region_number": 1,
        "river_mile_range": "12-23",
        "year": 2017,
        "month": 9,
        "day": 27,
        "gear_type": "Ichthyoplankton Net",
        "program": "Long River Survey",
        "taxon_id": "TX-YP",
        "scientific_name": "Perca flavescens",
        "common_name": "Yellow Perch",
        "taxonomic_group": "Fish",
        "life_stage": "Egg",
        "sampling_events": 1,
        "biological_records": 1,
        "mean_relative_abundance": 2.43,
        "total_abundance": 0
      }
    },
    {
      "type": "Feature",
      "geometry": {
        "type": "Point",
        "coordinates": [
          -73.96321,
          40.83471
        ]
      },
      "properties": {
        "station_id": "YK07",
        "station_name": "Region 1 Yonkers Station 7",
        "river_mile": 17.1,
        "region": "Region 1 - Yonkers",
        "region_name": "Yonkers",
        "region_code": "YK",
        "region_number": 1,
        "river_mile_range": "12-23",
        "year": 2018,
        "month": 10,
        "day": 4,
        "gear_type": "Beam Trawl",
        "program": "Fall Juvenile Survey",
        "taxon_id": "TX-SS",
        "scientific_name": "Notropis hudsonius",
        "common_name": "Spottail Shiner",
        "taxonomic_group": "Fish",
        "life_stage": "Yolk-Sac Larvae",
        "sampling_events": 1,
        "biological_records": 1,
        "mean_relative_abundance": 2.29,
        "total_abundance": 0
      }
    },
    {
      "type": "Feature",
      "geometry": {
        "type": "Point",
        "coordinates": [
          -73.92396,
          40.84352
        ]
      },
      "properties": {
        "station_id": "YK08",
        "station_name": "Region 1 Yonkers Station 8",
        "river_mile": 17.9,
        "region": "Region 1 - Yonkers",
        "region_name": "Yonkers",
        "region_code": "YK",
        "region_number": 1,
        "river_mile_range": "12-23",
        "year": 2019,
        "month": 11,
        "day": 9,
        "gear_type": "Beach Seine",
        "program": "Beach Seine Survey",
        "taxon_id": "TX-B",
        "scientific_name": "Pomatomus saltatrix",
        "common_name": "Bluefish",
        "taxonomic_group": "Fish",
        "life_stage": "Post-Yolk-Sac Larvae",
        "sampling_events": 1,
        "biological_records": 1,
        "mean_relative_abundance": 0.7,
        "total_abundance": 0
      }
    },
    {
      "type": "Feature",
      "geometry": {
        "type": "Point",
        "coordinates": [
          -73.95886,
          40.85816
        ]
      },
      "properties": {
        "station_id": "YK09",
        "station_name": "Region 1 Yonkers Station 9",
        "river_mile": 18.6,
        "region": "Region 1 - Yonkers",
        "region_name": "Yonkers",
        "region_code": "YK",
        "region_number": 1,
        "river_mile_range": "12-23",
        "year": 2020,
        "month": 12,
        "day": 14,
        "gear_type": "Ichthyoplankton Net",
        "program": "Long River Survey",
        "taxon_id": "TX-H",
        "scientific_name": "Trinectes maculatus",
        "common_name": "Hogchoker",
        "taxonomic_group": "Fish",
        "life_stage": "Young Of The Year",
        "sampling_events": 1,
        "biological_records": 1,
        "mean_relative_abundance": 1.02,
        "total_abundance": 0
      }
    },
    {
      "type": "Feature",
      "geometry": {
        "type": "Point",
        "coordinates": [
          -73.9158,
          40.86973
        ]
      },
      "properties": {
        "station_id": "YK10",
        "station_name": "Region 1 Yonkers Station 10",
        "river_mile": 19.3,
        "region": "Region 1 - Yonkers",
        "region_name": "Yonkers",
        "region_code": "YK",
        "region_number": 1,
        "river_mile_range": "12-23",
        "year": 2021,
        "month": 1,
        "day": 19,
        "gear_type": "Beam Trawl",
        "program": "Fall Juvenile Survey",
        "taxon_id": "TX-AM",
        "scientific_name": "Brevoortia tyrannus",
        "common_name": "Atlantic Menhaden",
        "taxonomic_group": "Fish",
        "life_stage": "Yearling",
        "sampling_events": 1,
        "biological_records": 1,
        "mean_relative_abundance": 2.68,
        "total_abundance": 0
      }
    },
    {
      "type": "Feature",
      "geometry": {
        "type": "Point",
        "coordinates": [
          -73.94407,
          40.88473
        ]
      },
      "properties": {
        "station_id": "YK11",
        "station_name": "Region 1 Yonkers Station 11",
        "river_mile": 20.1,
        "region": "Region 1 - Yonkers",
        "region_name": "Yonkers",
        "region_code": "YK",
        "region_number": 1,
        "river_mile_range": "12-23",
        "year": 2022,
        "month": 2,
        "day": 24,
        "gear_type": "Beach Seine",
        "program": "Beach Seine Survey",
        "taxon_id": "TX-AT",
        "scientific_name": "Microgadus tomcod",
        "common_name": "Atlantic Tomcod",
        "taxonomic_group": "Fish",
        "life_stage": "Adult",
        "sampling_events": 1,
        "biological_records": 1,
        "mean_relative_abundance": 1.05,
        "total_abundance": 0
      }
    },
    {
      "type": "Feature",
      "geometry": {
        "type": "Point",
        "coordinates": [
          -73.89515,
          40.90223
        ]
      },
      "properties": {
        "station_id": "YK12",
        "station_name": "Region 1 Yonkers Station 12",
        "river_mile": 20.8,
        "region": "Region 1 - Yonkers",
        "region_name": "Yonkers",
        "region_code": "YK",
        "region_number": 1,
        "river_mile_range": "12-23",
        "year": 2023,
        "month": 3,
        "day": 1,
        "gear_type": "Ichthyoplankton Net",
        "program": "Long River Survey",
        "taxon_id": "TX-AS",
        "scientific_name": "Alosa sapidissima",
        "common_name": "American Shad",
        "taxonomic_group": "Fish",
        "life_stage": "Egg",
        "sampling_events": 1,
        "biological_records": 1,
        "mean_relative_abundance": 1.54,
        "total_abundance": 0
      }
    },
    {
      "type": "Feature",
      "geometry": {
        "type": "Point",
        "coordinates": [
          -73.92896,
          40.91166
        ]
      },
      "properties": {
        "station_id": "YK13",
        "station_name": "Region 1 Yonkers Station 13",
        "river_mile": 21.5,
        "region": "Region 1 - Yonkers",
        "region_name": "Yonkers",
        "region_code": "YK",
        "region_number": 1,
        "river_mile_range": "12-23",
        "year": 2024,
        "month": 4,
        "day": 6,
        "gear_type": "Beam Trawl",
        "program": "Fall Juvenile Survey",
        "taxon_id": "TX-SB",
        "scientific_name": "Morone saxatilis",
        "common_name": "Striped Bass",
        "taxonomic_group": "Fish",
        "life_stage": "Yolk-Sac Larvae",
        "sampling_events": 1,
        "biological_records": 1,
        "mean_relative_abundance": 0.72,
        "total_abundance": 0
      }
    },
    {
      "type": "Feature",
      "geometry": {
        "type": "Point",
        "coordinates": [
          -73.88662,
          40.92545
        ]
      },
      "properties": {
        "station_id": "YK14",
        "station_name": "Region 1 Yonkers Station 14",
        "river_mile": 22.3,
        "region": "Region 1 - Yonkers",
        "region_name": "Yonkers",
        "region_code": "YK",
        "region_number": 1,
        "river_mile_range": "12-23",
        "year": 2010,
        "month": 5,
        "day": 11,
        "gear_type": "Beach Seine",
        "program": "Beach Seine Survey",
        "taxon_id": "TX-WP",
        "scientific_name": "Morone americana",
        "common_name": "White Perch",
        "taxonomic_group": "Fish",
        "life_stage": "Post-Yolk-Sac Larvae",
        "sampling_events": 1,
        "biological_records": 1,
        "mean_relative_abundance": 2.73,
        "total_abundance": 0
      }
    },
    {
      "type": "Feature",
      "geometry": {
        "type": "Point",
        "coordinates": [
          -73.90618,
          40.97733
        ]
      },
      "properties": {
        "station_id": "TZ01",
        "station_name": "Region 2 Tappan Zee Station 1",
        "river_mile": 25.5,
        "region": "Region 2 - Tappan Zee",
        "region_name": "Tappan Zee",
        "region_code": "TZ",
        "region_number": 2,
        "river_mile_range": "24-33",
        "year": 2014,
        "month": 7,
        "day": 3,
        "gear_type": "Beach Seine",
        "program": "Beach Seine Survey",
        "taxon_id": "TX-BH",
        "scientific_name": "Alosa aestivalis",
        "common_name": "Blueback Herring",
        "taxonomic_group": "Fish",
        "life_stage": "Post-Yolk-Sac Larvae",
        "sampling_events": 1,
        "biological_records": 1,
        "mean_relative_abundance": 0.7,
        "total_abundance": 0
      }
    },
    {
      "type": "Feature",
      "geometry": {
        "type": "Point",
        "coordinates": [
          -73.86918,
          41.00226
        ]
      },
      "properties": {
        "station_id": "TZ02",
        "station_name": "Region 2 Tappan Zee Station 2",
        "river_mile": 27,
        "region": "Region 2 - Tappan Zee",
        "region_name": "Tappan Zee",
        "region_code": "TZ",
        "region_number": 2,
        "river_mile_range": "24-33",
        "year": 2015,
        "month": 8,
        "day": 8,
        "gear_type": "Ichthyoplankton Net",
        "program": "Long River Survey",
        "taxon_id": "TX-RS",
        "scientific_name": "Osmerus mordax",
        "common_name": "Rainbow Smelt",
        "taxonomic_group": "Fish",
        "life_stage": "Young Of The Year",
        "sampling_events": 1,
        "biological_records": 1,
        "mean_relative_abundance": 0.81,
        "total_abundance": 0
      }
    },
    {
      "type": "Feature",
      "geometry": {
        "type": "Point",
        "coordinates": [
          -73.90328,
          41.02914
        ]
      },
      "properties": {
        "station_id": "TZ03",
        "station_name": "Region 2 Tappan Zee Station 3",
        "river_mile": 28.5,
        "region": "Region 2 - Tappan Zee",
        "region_name": "Tappan Zee",
        "region_code": "TZ",
        "region_number": 2,
        "river_mile_range": "24-33",
        "year": 2016,
        "month": 9,
        "day": 13,
        "gear_type": "Beam Trawl",
        "program": "Fall Juvenile Survey",
        "taxon_id": "TX-YP",
        "scientific_name": "Perca flavescens",
        "common_name": "Yellow Perch",
        "taxonomic_group": "Fish",
        "life_stage": "Yearling",
        "sampling_events": 1,
        "biological_records": 1,
        "mean_relative_abundance": 1.53,
        "total_abundance": 0
      }
    },
    {
      "type": "Feature",
      "geometry": {
        "type": "Point",
        "coordinates": [
          -73.8623,
          41.05039
        ]
      },
      "properties": {
        "station_id": "TZ04",
        "station_name": "Region 2 Tappan Zee Station 4",
        "river_mile": 30,
        "region": "Region 2 - Tappan Zee",
        "region_name": "Tappan Zee",
        "region_code": "TZ",
        "region_number": 2,
        "river_mile_range": "24-33",
        "year": 2017,
        "month": 10,
        "day": 18,
        "gear_type": "Beach Seine",
        "program": "Beach Seine Survey",
        "taxon_id": "TX-SS",
        "scientific_name": "Notropis hudsonius",
        "common_name": "Spottail Shiner",
        "taxonomic_group": "Fish",
        "life_stage": "Adult",
        "sampling_events": 1,
        "biological_records": 1,
        "mean_relative_abundance": 0.48,
        "total_abundance": 0
      }
    },
    {
      "type": "Feature",
      "geometry": {
        "type": "Point",
        "coordinates": [
          -73.89369,
          41.0785
        ]
      },
      "properties": {
        "station_id": "TZ05",
        "station_name": "Region 2 Tappan Zee Station 5",
        "river_mile": 31.5,
        "region": "Region 2 - Tappan Zee",
        "region_name": "Tappan Zee",
        "region_code": "TZ",
        "region_number": 2,
        "river_mile_range": "24-33",
        "year": 2018,
        "month": 11,
        "day": 23,
        "gear_type": "Ichthyoplankton Net",
        "program": "Long River Survey",
        "taxon_id": "TX-B",
        "scientific_name": "Pomatomus saltatrix",
        "common_name": "Bluefish",
        "taxonomic_group": "Fish",
        "life_stage": "Egg",
        "sampling_events": 1,
        "biological_records": 1,
        "mean_relative_abundance": 4.14,
        "total_abundance": 0
      }
    },
    {
      "type": "Feature",
      "geometry": {
        "type": "Point",
        "coordinates": [
          -73.89416,
          41.12699
        ]
      },
      "properties": {
        "station_id": "CH01",
        "station_name": "Region 3 Croton-Haverstraw Station 1",
        "river_mile": 34.3,
        "region": "Region 3 - Croton-Haverstraw",
        "region_name": "Croton-Haverstraw",
        "region_code": "CH",
        "region_number": 3,
        "river_mile_range": "34-38",
        "year": 2016,
        "month": 10,
        "day": 4,
        "gear_type": "Ichthyoplankton Net",
        "program": "Long River Survey",
        "taxon_id": "TX-SS",
        "scientific_name": "Notropis hudsonius",
        "common_name": "Spottail Shiner",
        "taxonomic_group": "Fish",
        "life_stage": "Young Of The Year",
        "sampling_events": 1,
        "biological_records": 1,
        "mean_relative_abundance": 0.55,
        "total_abundance": 0
      }
    },
    {
      "type": "Feature",
      "geometry": {
        "type": "Point",
        "coordinates": [
          -73.86352,
          41.13135
        ]
      },
      "properties": {
        "station_id": "CH02",
        "station_name": "Region 3 Croton-Haverstraw Station 2",
        "river_mile": 34.7,
        "region": "Region 3 - Croton-Haverstraw",
        "region_name": "Croton-Haverstraw",
        "region_code": "CH",
        "region_number": 3,
        "river_mile_range": "34-38",
        "year": 2017,
        "month": 11,
        "day": 9,
        "gear_type": "Beam Trawl",
        "program": "Fall Juvenile Survey",
        "taxon_id": "TX-B",
        "scientific_name": "Pomatomus saltatrix",
        "common_name": "Bluefish",
        "taxonomic_group": "Fish",
        "life_stage": "Yearling",
        "sampling_events": 1,
        "biological_records": 1,
        "mean_relative_abundance": 1.47,
        "total_abundance": 0
      }
    },
    {
      "type": "Feature",
      "geometry": {
        "type": "Point",
        "coordinates": [
          -73.90721,
          41.13987
        ]
      },
      "properties": {
        "station_id": "CH03",
        "station_name": "Region 3 Croton-Haverstraw Station 3",
        "river_mile": 35,
        "region": "Region 3 - Croton-Haverstraw",
        "region_name": "Croton-Haverstraw",
        "region_code": "CH",
        "region_number": 3,
        "river_mile_range": "34-38",
        "year": 2018,
        "month": 12,
        "day": 14,
        "gear_type": "Beach Seine",
        "program": "Beach Seine Survey",
        "taxon_id": "TX-H",
        "scientific_name": "Trinectes maculatus",
        "common_name": "Hogchoker",
        "taxonomic_group": "Fish",
        "life_stage": "Adult",
        "sampling_events": 1,
        "biological_records": 1,
        "mean_relative_abundance": 0.3,
        "total_abundance": 0
      }
    },
    {
      "type": "Feature",
      "geometry": {
        "type": "Point",
        "coordinates": [
          -73.87312,
          41.14867
        ]
      },
      "properties": {
        "station_id": "CH04",
        "station_name": "Region 3 Croton-Haverstraw Station 4",
        "river_mile": 35.3,
        "region": "Region 3 - Croton-Haverstraw",
        "region_name": "Croton-Haverstraw",
        "region_code": "CH",
        "region_number": 3,
        "river_mile_range": "34-38",
        "year": 2019,
        "month": 1,
        "day": 19,
        "gear_type": "Ichthyoplankton Net",
        "program": "Long River Survey",
        "taxon_id": "TX-AM",
        "scientific_name": "Brevoortia tyrannus",
        "common_name": "Atlantic Menhaden",
        "taxonomic_group": "Fish",
        "life_stage": "Egg",
        "sampling_events": 1,
        "biological_records": 1,
        "mean_relative_abundance": 0.28,
        "total_abundance": 0
      }
    },
    {
      "type": "Feature",
      "geometry": {
        "type": "Point",
        "coordinates": [
          -73.91204,
          41.15566
        ]
      },
      "properties": {
        "station_id": "CH05",
        "station_name": "Region 3 Croton-Haverstraw Station 5",
        "river_mile": 35.7,
        "region": "Region 3 - Croton-Haverstraw",
        "region_name": "Croton-Haverstraw",
        "region_code": "CH",
        "region_number": 3,
        "river_mile_range": "34-38",
        "year": 2020,
        "month": 2,
        "day": 24,
        "gear_type": "Beam Trawl",
        "program": "Fall Juvenile Survey",
        "taxon_id": "TX-AT",
        "scientific_name": "Microgadus tomcod",
        "common_name": "Atlantic Tomcod",
        "taxonomic_group": "Fish",
        "life_stage": "Yolk-Sac Larvae",
        "sampling_events": 1,
        "biological_records": 1,
        "mean_relative_abundance": 3.04,
        "total_abundance": 0
      }
    },
    {
      "type": "Feature",
      "geometry": {
        "type": "Point",
        "coordinates": [
          -73.86904,
          41.15989
        ]
      },
      "properties": {
        "station_id": "CH06",
        "station_name": "Region 3 Croton-Haverstraw Station 6",
        "river_mile": 36,
        "region": "Region 3 - Croton-Haverstraw",
        "region_name": "Croton-Haverstraw",
        "region_code": "CH",
        "region_number": 3,
        "river_mile_range": "34-38",
        "year": 2021,
        "month": 3,
        "day": 1,
        "gear_type": "Beach Seine",
        "program": "Beach Seine Survey",
        "taxon_id": "TX-AS",
        "scientific_name": "Alosa sapidissima",
        "common_name": "American Shad",
        "taxonomic_group": "Fish",
        "life_stage": "Post-Yolk-Sac Larvae",
        "sampling_events": 1,
        "biological_records": 1,
        "mean_relative_abundance": 1.49,
        "total_abundance": 0
      }
    },
    {
      "type": "Feature",
      "geometry": {
        "type": "Point",
        "coordinates": [
          -73.91,
          41.16384
        ]
      },
      "properties": {
        "station_id": "CH07",
        "station_name": "Region 3 Croton-Haverstraw Station 7",
        "river_mile": 36.3,
        "region": "Region 3 - Croton-Haverstraw",
        "region_name": "Croton-Haverstraw",
        "region_code": "CH",
        "region_number": 3,
        "river_mile_range": "34-38",
        "year": 2022,
        "month": 4,
        "day": 6,
        "gear_type": "Ichthyoplankton Net",
        "program": "Long River Survey",
        "taxon_id": "TX-SB",
        "scientific_name": "Morone saxatilis",
        "common_name": "Striped Bass",
        "taxonomic_group": "Fish",
        "life_stage": "Young Of The Year",
        "sampling_events": 1,
        "biological_records": 1,
        "mean_relative_abundance": 0.46,
        "total_abundance": 0
      }
    },
    {
      "type": "Feature",
      "geometry": {
        "type": "Point",
        "coordinates": [
          -73.88374,
          41.17665
        ]
      },
      "properties": {
        "station_id": "CH08",
        "station_name": "Region 3 Croton-Haverstraw Station 8",
        "river_mile": 36.7,
        "region": "Region 3 - Croton-Haverstraw",
        "region_name": "Croton-Haverstraw",
        "region_code": "CH",
        "region_number": 3,
        "river_mile_range": "34-38",
        "year": 2023,
        "month": 5,
        "day": 11,
        "gear_type": "Beam Trawl",
        "program": "Fall Juvenile Survey",
        "taxon_id": "TX-WP",
        "scientific_name": "Morone americana",
        "common_name": "White Perch",
        "taxonomic_group": "Fish",
        "life_stage": "Yearling",
        "sampling_events": 1,
        "biological_records": 1,
        "mean_relative_abundance": 2.15,
        "total_abundance": 0
      }
    },
    {
      "type": "Feature",
      "geometry": {
        "type": "Point",
        "coordinates": [
          -73.92578,
          41.18211
        ]
      },
      "properties": {
        "station_id": "CH09",
        "station_name": "Region 3 Croton-Haverstraw Station 9",
        "river_mile": 37,
        "region": "Region 3 - Croton-Haverstraw",
        "region_name": "Croton-Haverstraw",
        "region_code": "CH",
        "region_number": 3,
        "river_mile_range": "34-38",
        "year": 2024,
        "month": 6,
        "day": 16,
        "gear_type": "Beach Seine",
        "program": "Beach Seine Survey",
        "taxon_id": "TX-BA",
        "scientific_name": "Anchoa mitchilli",
        "common_name": "Bay Anchovy",
        "taxonomic_group": "Fish",
        "life_stage": "Adult",
        "sampling_events": 1,
        "biological_records": 1,
        "mean_relative_abundance": 1.68,
        "total_abundance": 0
      }
    },
    {
      "type": "Feature",
      "geometry": {
        "type": "Point",
        "coordinates": [
          -73.89331,
          41.18458
        ]
      },
      "properties": {
        "station_id": "CH10",
        "station_name": "Region 3 Croton-Haverstraw Station 10",
        "river_mile": 37.3,
        "region": "Region 3 - Croton-Haverstraw",
        "region_name": "Croton-Haverstraw",
        "region_code": "CH",
        "region_number": 3,
        "river_mile_range": "34-38",
        "year": 2010,
        "month": 7,
        "day": 21,
        "gear_type": "Ichthyoplankton Net",
        "program": "Long River Survey",
        "taxon_id": "TX-A",
        "scientific_name": "Alosa pseudoharengus",
        "common_name": "Alewife",
        "taxonomic_group": "Fish",
        "life_stage": "Egg",
        "sampling_events": 1,
        "biological_records": 1,
        "mean_relative_abundance": 2.64,
        "total_abundance": 0
      }
    },
    {
      "type": "Feature",
      "geometry": {
        "type": "Point",
        "coordinates": [
          -73.92803,
          41.19548
        ]
      },
      "properties": {
        "station_id": "CH11",
        "station_name": "Region 3 Croton-Haverstraw Station 11",
        "river_mile": 37.7,
        "region": "Region 3 - Croton-Haverstraw",
        "region_name": "Croton-Haverstraw",
        "region_code": "CH",
        "region_number": 3,
        "river_mile_range": "34-38",
        "year": 2011,
        "month": 8,
        "day": 26,
        "gear_type": "Beam Trawl",
        "program": "Fall Juvenile Survey",
        "taxon_id": "TX-BH",
        "scientific_name": "Alosa aestivalis",
        "common_name": "Blueback Herring",
        "taxonomic_group": "Fish",
        "life_stage": "Yolk-Sac Larvae",
        "sampling_events": 1,
        "biological_records": 1,
        "mean_relative_abundance": 0.24,
        "total_abundance": 0
      }
    },
    {
      "type": "Feature",
      "geometry": {
        "type": "Point",
        "coordinates": [
          -73.94116,
          41.24335
        ]
      },
      "properties": {
        "station_id": "IP01",
        "station_name": "Region 4 Indian Point Station 1",
        "river_mile": 41.3,
        "region": "Region 4 - Indian Point",
        "region_name": "Indian Point",
        "region_code": "IP",
        "region_number": 4,
        "river_mile_range": "39-46",
        "year": 2018,
        "month": 1,
        "day": 5,
        "gear_type": "Beam Trawl",
        "program": "Fall Juvenile Survey",
        "taxon_id": "TX-AM",
        "scientific_name": "Brevoortia tyrannus",
        "common_name": "Atlantic Menhaden",
        "taxonomic_group": "Fish",
        "life_stage": "Yearling",
        "sampling_events": 1,
        "biological_records": 1,
        "mean_relative_abundance": 1.71,
        "total_abundance": 0
      }
    },
    {
      "type": "Feature",
      "geometry": {
        "type": "Point",
        "coordinates": [
          -73.92051,
          41.28016
        ]
      },
      "properties": {
        "station_id": "IP02",
        "station_name": "Region 4 Indian Point Station 2",
        "river_mile": 43.7,
        "region": "Region 4 - Indian Point",
        "region_name": "Indian Point",
        "region_code": "IP",
        "region_number": 4,
        "river_mile_range": "39-46",
        "year": 2019,
        "month": 2,
        "day": 10,
        "gear_type": "Beach Seine",
        "program": "Beach Seine Survey",
        "taxon_id": "TX-AT",
        "scientific_name": "Microgadus tomcod",
        "common_name": "Atlantic Tomcod",
        "taxonomic_group": "Fish",
        "life_stage": "Adult",
        "sampling_events": 1,
        "biological_records": 1,
        "mean_relative_abundance": 0.18,
        "total_abundance": 0
      }
    },
    {
      "type": "Feature",
      "geometry": {
        "type": "Point",
        "coordinates": [
          -73.96327,
          41.32773
        ]
      },
      "properties": {
        "station_id": "WP01",
        "station_name": "Region 5 West Point Station 1",
        "river_mile": 47.8,
        "region": "Region 5 - West Point",
        "region_name": "West Point",
        "region_code": "WP",
        "region_number": 5,
        "river_mile_range": "47-55",
        "year": 2020,
        "month": 4,
        "day": 6,
        "gear_type": "Beach Seine",
        "program": "Beach Seine Survey",
        "taxon_id": "TX-SB",
        "scientific_name": "Morone saxatilis",
        "common_name": "Striped Bass",
        "taxonomic_group": "Fish",
        "life_stage": "Adult",
        "sampling_events": 1,
        "biological_records": 1,
        "mean_relative_abundance": 0.28,
        "total_abundance": 0
      }
    },
    {
      "type": "Feature",
      "geometry": {
        "type": "Point",
        "coordinates": [
          -73.93764,
          41.34106
        ]
      },
      "properties": {
        "station_id": "WP02",
        "station_name": "Region 5 West Point Station 2",
        "river_mile": 48.6,
        "region": "Region 5 - West Point",
        "region_name": "West Point",
        "region_code": "WP",
        "region_number": 5,
        "river_mile_range": "47-55",
        "year": 2021,
        "month": 5,
        "day": 11,
        "gear_type": "Ichthyoplankton Net",
        "program": "Long River Survey",
        "taxon_id": "TX-WP",
        "scientific_name": "Morone americana",
        "common_name": "White Perch",
        "taxonomic_group": "Fish",
        "life_stage": "Egg",
        "sampling_events": 1,
        "biological_records": 1,
        "mean_relative_abundance": 4.36,
        "total_abundance": 0
      }
    },
    {
      "type": "Feature",
      "geometry": {
        "type": "Point",
        "coordinates": [
          -73.977,
          41.35038
        ]
      },
      "properties": {
        "station_id": "WP03",
        "station_name": "Region 5 West Point Station 3",
        "river_mile": 49.4,
        "region": "Region 5 - West Point",
        "region_name": "West Point",
        "region_code": "WP",
        "region_number": 5,
        "river_mile_range": "47-55",
        "year": 2022,
        "month": 6,
        "day": 16,
        "gear_type": "Beam Trawl",
        "program": "Fall Juvenile Survey",
        "taxon_id": "TX-BA",
        "scientific_name": "Anchoa mitchilli",
        "common_name": "Bay Anchovy",
        "taxonomic_group": "Fish",
        "life_stage": "Yolk-Sac Larvae",
        "sampling_events": 1,
        "biological_records": 1,
        "mean_relative_abundance": 1.16,
        "total_abundance": 0
      }
    },
    {
      "type": "Feature",
      "geometry": {
        "type": "Point",
        "coordinates": [
          -73.93824,
          41.35803
        ]
      },
      "properties": {
        "station_id": "WP04",
        "station_name": "Region 5 West Point Station 4",
        "river_mile": 50.2,
        "region": "Region 5 - West Point",
        "region_name": "West Point",
        "region_code": "WP",
        "region_number": 5,
        "river_mile_range": "47-55",
        "year": 2023,
        "month": 7,
        "day": 21,
        "gear_type": "Beach Seine",
        "program": "Beach Seine Survey",
        "taxon_id": "TX-A",
        "scientific_name": "Alosa pseudoharengus",
        "common_name": "Alewife",
        "taxonomic_group": "Fish",
        "life_stage": "Post-Yolk-Sac Larvae",
        "sampling_events": 1,
        "biological_records": 1,
        "mean_relative_abundance": 1.82,
        "total_abundance": 0
      }
    },
    {
      "type": "Feature",
      "geometry": {
        "type": "Point",
        "coordinates": [
          -73.97368,
          41.36275
        ]
      },
      "properties": {
        "station_id": "WP05",
        "station_name": "Region 5 West Point Station 5",
        "river_mile": 51,
        "region": "Region 5 - West Point",
        "region_name": "West Point",
        "region_code": "WP",
        "region_number": 5,
        "river_mile_range": "47-55",
        "year": 2024,
        "month": 8,
        "day": 26,
        "gear_type": "Ichthyoplankton Net",
        "program": "Long River Survey",
        "taxon_id": "TX-BH",
        "scientific_name": "Alosa aestivalis",
        "common_name": "Blueback Herring",
        "taxonomic_group": "Fish",
        "life_stage": "Young Of The Year",
        "sampling_events": 1,
        "biological_records": 1,
        "mean_relative_abundance": 2.95,
        "total_abundance": 0
      }
    },
    {
      "type": "Feature",
      "geometry": {
        "type": "Point",
        "coordinates": [
          -73.93689,
          41.37601
        ]
      },
      "properties": {
        "station_id": "WP06",
        "station_name": "Region 5 West Point Station 6",
        "river_mile": 51.8,
        "region": "Region 5 - West Point",
        "region_name": "West Point",
        "region_code": "WP",
        "region_number": 5,
        "river_mile_range": "47-55",
        "year": 2010,
        "month": 9,
        "day": 3,
        "gear_type": "Beam Trawl",
        "program": "Fall Juvenile Survey",
        "taxon_id": "TX-RS",
        "scientific_name": "Osmerus mordax",
        "common_name": "Rainbow Smelt",
        "taxonomic_group": "Fish",
        "life_stage": "Yearling",
        "sampling_events": 1,
        "biological_records": 1,
        "mean_relative_abundance": 2.68,
        "total_abundance": 0
      }
    },
    {
      "type": "Feature",
      "geometry": {
        "type": "Point",
        "coordinates": [
          -73.97369,
          41.38475
        ]
      },
      "properties": {
        "station_id": "WP07",
        "station_name": "Region 5 West Point Station 7",
        "river_mile": 52.6,
        "region": "Region 5 - West Point",
        "region_name": "West Point",
        "region_code": "WP",
        "region_number": 5,
        "river_mile_range": "47-55",
        "year": 2011,
        "month": 10,
        "day": 8,
        "gear_type": "Beach Seine",
        "program": "Beach Seine Survey",
        "taxon_id": "TX-YP",
        "scientific_name": "Perca flavescens",
        "common_name": "Yellow Perch",
        "taxonomic_group": "Fish",
        "life_stage": "Adult",
        "sampling_events": 1,
        "biological_records": 1,
        "mean_relative_abundance": 0.92,
        "total_abundance": 0
      }
    },
    {
      "type": "Feature",
      "geometry": {
        "type": "Point",
        "coordinates": [
          -73.93847,
          41.39398
        ]
      },
      "properties": {
        "station_id": "WP08",
        "station_name": "Region 5 West Point Station 8",
        "river_mile": 53.4,
        "region": "Region 5 - West Point",
        "region_name": "West Point",
        "region_code": "WP",
        "region_number": 5,
        "river_mile_range": "47-55",
        "year": 2012,
        "month": 11,
        "day": 13,
        "gear_type": "Ichthyoplankton Net",
        "program": "Long River Survey",
        "taxon_id": "TX-SS",
        "scientific_name": "Notropis hudsonius",
        "common_name": "Spottail Shiner",
        "taxonomic_group": "Fish",
        "life_stage": "Egg",
        "sampling_events": 1,
        "biological_records": 1,
        "mean_relative_abundance": 2.02,
        "total_abundance": 0
      }
    },
    {
      "type": "Feature",
      "geometry": {
        "type": "Point",
        "coordinates": [
          -73.98372,
          41.40187
        ]
      },
      "properties": {
        "station_id": "WP09",
        "station_name": "Region 5 West Point Station 9",
        "river_mile": 54.2,
        "region": "Region 5 - West Point",
        "region_name": "West Point",
        "region_code": "WP",
        "region_number": 5,
        "river_mile_range": "47-55",
        "year": 2013,
        "month": 12,
        "day": 18,
        "gear_type": "Beam Trawl",
        "program": "Fall Juvenile Survey",
        "taxon_id": "TX-B",
        "scientific_name": "Pomatomus saltatrix",
        "common_name": "Bluefish",
        "taxonomic_group": "Fish",
        "life_stage": "Yolk-Sac Larvae",
        "sampling_events": 1,
        "biological_records": 1,
        "mean_relative_abundance": 0.73,
        "total_abundance": 0
      }
    },
    {
      "type": "Feature",
      "geometry": {
        "type": "Point",
        "coordinates": [
          -73.99001,
          41.42491
        ]
      },
      "properties": {
        "station_id": "CW01",
        "station_name": "Region 6 Cornwall Station 1",
        "river_mile": 56.7,
        "region": "Region 6 - Cornwall",
        "region_name": "Cornwall",
        "region_code": "CW",
        "region_number": 6,
        "river_mile_range": "56-61",
        "year": 2022,
        "month": 7,
        "day": 7,
        "gear_type": "Ichthyoplankton Net",
        "program": "Long River Survey",
        "taxon_id": "TX-A",
        "scientific_name": "Alosa pseudoharengus",
        "common_name": "Alewife",
        "taxonomic_group": "Fish",
        "life_stage": "Egg",
        "sampling_events": 1,
        "biological_records": 1,
        "mean_relative_abundance": 1.4,
        "total_abundance": 0
      }
    },
    {
      "type": "Feature",
      "geometry": {
        "type": "Point",
        "coordinates": [
          -73.96274,
          41.4356
        ]
      },
      "properties": {
        "station_id": "CW02",
        "station_name": "Region 6 Cornwall Station 2",
        "river_mile": 57.4,
        "region": "Region 6 - Cornwall",
        "region_name": "Cornwall",
        "region_code": "CW",
        "region_number": 6,
        "river_mile_range": "56-61",
        "year": 2023,
        "month": 8,
        "day": 12,
        "gear_type": "Beam Trawl",
        "program": "Fall Juvenile Survey",
        "taxon_id": "TX-BH",
        "scientific_name": "Alosa aestivalis",
        "common_name": "Blueback Herring",
        "taxonomic_group": "Fish",
        "life_stage": "Yolk-Sac Larvae",
        "sampling_events": 1,
        "biological_records": 1,
        "mean_relative_abundance": 1.22,
        "total_abundance": 0
      }
    },
    {
      "type": "Feature",
      "geometry": {
        "type": "Point",
        "coordinates": [
          -74.00847,
          41.44356
        ]
      },
      "properties": {
        "station_id": "CW03",
        "station_name": "Region 6 Cornwall Station 3",
        "river_mile": 58.1,
        "region": "Region 6 - Cornwall",
        "region_name": "Cornwall",
        "region_code": "CW",
        "region_number": 6,
        "river_mile_range": "56-61",
        "year": 2024,
        "month": 9,
        "day": 17,
        "gear_type": "Beach Seine",
        "program": "Beach Seine Survey",
        "taxon_id": "TX-RS",
        "scientific_name": "Osmerus mordax",
        "common_name": "Rainbow Smelt",
        "taxonomic_group": "Fish",
        "life_stage": "Post-Yolk-Sac Larvae",
        "sampling_events": 1,
        "biological_records": 1,
        "mean_relative_abundance": 0.73,
        "total_abundance": 0
      }
    },
    {
      "type": "Feature",
      "geometry": {
        "type": "Point",
        "coordinates": [
          -73.97874,
          41.44768
        ]
      },
      "properties": {
        "station_id": "CW04",
        "station_name": "Region 6 Cornwall Station 4",
        "river_mile": 58.9,
        "region": "Region 6 - Cornwall",
        "region_name": "Cornwall",
        "region_code": "CW",
        "region_number": 6,
        "river_mile_range": "56-61",
        "year": 2010,
        "month": 10,
        "day": 22,
        "gear_type": "Ichthyoplankton Net",
        "program": "Long River Survey",
        "taxon_id": "TX-YP",
        "scientific_name": "Perca flavescens",
        "common_name": "Yellow Perch",
        "taxonomic_group": "Fish",
        "life_stage": "Young Of The Year",
        "sampling_events": 1,
        "biological_records": 1,
        "mean_relative_abundance": 0.46,
        "total_abundance": 0
      }
    },
    {
      "type": "Feature",
      "geometry": {
        "type": "Point",
        "coordinates": [
          -74.01441,
          41.45439
        ]
      },
      "properties": {
        "station_id": "CW05",
        "station_name": "Region 6 Cornwall Station 5",
        "river_mile": 59.6,
        "region": "Region 6 - Cornwall",
        "region_name": "Cornwall",
        "region_code": "CW",
        "region_number": 6,
        "river_mile_range": "56-61",
        "year": 2011,
        "month": 11,
        "day": 27,
        "gear_type": "Beam Trawl",
        "program": "Fall Juvenile Survey",
        "taxon_id": "TX-SS",
        "scientific_name": "Notropis hudsonius",
        "common_name": "Spottail Shiner",
        "taxonomic_group": "Fish",
        "life_stage": "Yearling",
        "sampling_events": 1,
        "biological_records": 1,
        "mean_relative_abundance": 2.91,
        "total_abundance": 0
      }
    },
    {
      "type": "Feature",
      "geometry": {
        "type": "Point",
        "coordinates": [
          -73.98228,
          41.46119
        ]
      },
      "properties": {
        "station_id": "CW06",
        "station_name": "Region 6 Cornwall Station 6",
        "river_mile": 60.3,
        "region": "Region 6 - Cornwall",
        "region_name": "Cornwall",
        "region_code": "CW",
        "region_number": 6,
        "river_mile_range": "56-61",
        "year": 2012,
        "month": 12,
        "day": 4,
        "gear_type": "Beach Seine",
        "program": "Beach Seine Survey",
        "taxon_id": "TX-B",
        "scientific_name": "Pomatomus saltatrix",
        "common_name": "Bluefish",
        "taxonomic_group": "Fish",
        "life_stage": "Adult",
        "sampling_events": 1,
        "biological_records": 1,
        "mean_relative_abundance": 0.13,
        "total_abundance": 0
      }
    },
    {
      "type": "Feature",
      "geometry": {
        "type": "Point",
        "coordinates": [
          -74.01543,
          41.49712
        ]
      },
      "properties": {
        "station_id": "PK01",
        "station_name": "Region 7 Poughkeepsie Station 1",
        "river_mile": 62.8,
        "region": "Region 7 - Poughkeepsie",
        "region_name": "Poughkeepsie",
        "region_code": "PK",
        "region_number": 7,
        "river_mile_range": "62-76",
        "year": 2024,
        "month": 10,
        "day": 8,
        "gear_type": "Beam Trawl",
        "program": "Fall Juvenile Survey",
        "taxon_id": "TX-YP",
        "scientific_name": "Perca flavescens",
        "common_name": "Yellow Perch",
        "taxonomic_group": "Fish",
        "life_stage": "Yolk-Sac Larvae",
        "sampling_events": 1,
        "biological_records": 1,
        "mean_relative_abundance": 2.76,
        "total_abundance": 0
      }
    },
    {
      "type": "Feature",
      "geometry": {
        "type": "Point",
        "coordinates": [
          -73.98208,
          41.50823
        ]
      },
      "properties": {
        "station_id": "PK02",
        "station_name": "Region 7 Poughkeepsie Station 2",
        "river_mile": 63.6,
        "region": "Region 7 - Poughkeepsie",
        "region_name": "Poughkeepsie",
        "region_code": "PK",
        "region_number": 7,
        "river_mile_range": "62-76",
        "year": 2010,
        "month": 11,
        "day": 13,
        "gear_type": "Beach Seine",
        "program": "Beach Seine Survey",
        "taxon_id": "TX-SS",
        "scientific_name": "Notropis hudsonius",
        "common_name": "Spottail Shiner",
        "taxonomic_group": "Fish",
        "life_stage": "Post-Yolk-Sac Larvae",
        "sampling_events": 1,
        "biological_records": 1,
        "mean_relative_abundance": 0.76,
        "total_abundance": 0
      }
    },
    {
      "type": "Feature",
      "geometry": {
        "type": "Point",
        "coordinates": [
          -74.01811,
          41.52139
        ]
      },
      "properties": {
        "station_id": "PK03",
        "station_name": "Region 7 Poughkeepsie Station 3",
        "river_mile": 64.3,
        "region": "Region 7 - Poughkeepsie",
        "region_name": "Poughkeepsie",
        "region_code": "PK",
        "region_number": 7,
        "river_mile_range": "62-76",
        "year": 2011,
        "month": 12,
        "day": 18,
        "gear_type": "Ichthyoplankton Net",
        "program": "Long River Survey",
        "taxon_id": "TX-B",
        "scientific_name": "Pomatomus saltatrix",
        "common_name": "Bluefish",
        "taxonomic_group": "Fish",
        "life_stage": "Young Of The Year",
        "sampling_events": 1,
        "biological_records": 1,
        "mean_relative_abundance": 0.75,
        "total_abundance": 0
      }
    },
    {
      "type": "Feature",
      "geometry": {
        "type": "Point",
        "coordinates": [
          -73.97966,
          41.53359
        ]
      },
      "properties": {
        "station_id": "PK04",
        "station_name": "Region 7 Poughkeepsie Station 4",
        "river_mile": 65.1,
        "region": "Region 7 - Poughkeepsie",
        "region_name": "Poughkeepsie",
        "region_code": "PK",
        "region_number": 7,
        "river_mile_range": "62-76",
        "year": 2012,
        "month": 1,
        "day": 23,
        "gear_type": "Beam Trawl",
        "program": "Fall Juvenile Survey",
        "taxon_id": "TX-H",
        "scientific_name": "Trinectes maculatus",
        "common_name": "Hogchoker",
        "taxonomic_group": "Fish",
        "life_stage": "Yearling",
        "sampling_events": 1,
        "biological_records": 1,
        "mean_relative_abundance": 0.75,
        "total_abundance": 0
      }
    },
    {
      "type": "Feature",
      "geometry": {
        "type": "Point",
        "coordinates": [
          -74.00323,
          41.54502
        ]
      },
      "properties": {
        "station_id": "PK05",
        "station_name": "Region 7 Poughkeepsie Station 5",
        "river_mile": 65.9,
        "region": "Region 7 - Poughkeepsie",
        "region_name": "Poughkeepsie",
        "region_code": "PK",
        "region_number": 7,
        "river_mile_range": "62-76",
        "year": 2013,
        "month": 2,
        "day": 28,
        "gear_type": "Beach Seine",
        "program": "Beach Seine Survey",
        "taxon_id": "TX-AM",
        "scientific_name": "Brevoortia tyrannus",
        "common_name": "Atlantic Menhaden",
        "taxonomic_group": "Fish",
        "life_stage": "Adult",
        "sampling_events": 1,
        "biological_records": 1,
        "mean_relative_abundance": 1.48,
        "total_abundance": 0
      }
    },
    {
      "type": "Feature",
      "geometry": {
        "type": "Point",
        "coordinates": [
          -73.96081,
          41.55634
        ]
      },
      "properties": {
        "station_id": "PK06",
        "station_name": "Region 7 Poughkeepsie Station 6",
        "river_mile": 66.7,
        "region": "Region 7 - Poughkeepsie",
        "region_name": "Poughkeepsie",
        "region_code": "PK",
        "region_number": 7,
        "river_mile_range": "62-76",
        "year": 2014,
        "month": 3,
        "day": 5,
        "gear_type": "Ichthyoplankton Net",
        "program": "Long River Survey",
        "taxon_id": "TX-AT",
        "scientific_name": "Microgadus tomcod",
        "common_name": "Atlantic Tomcod",
        "taxonomic_group": "Fish",
        "life_stage": "Egg",
        "sampling_events": 1,
        "biological_records": 1,
        "mean_relative_abundance": 0.45,
        "total_abundance": 0
      }
    },
    {
      "type": "Feature",
      "geometry": {
        "type": "Point",
        "coordinates": [
          -73.99611,
          41.56533
        ]
      },
      "properties": {
        "station_id": "PK07",
        "station_name": "Region 7 Poughkeepsie Station 7",
        "river_mile": 67.4,
        "region": "Region 7 - Poughkeepsie",
        "region_name": "Poughkeepsie",
        "region_code": "PK",
        "region_number": 7,
        "river_mile_range": "62-76",
        "year": 2015,
        "month": 4,
        "day": 10,
        "gear_type": "Beam Trawl",
        "program": "Fall Juvenile Survey",
        "taxon_id": "TX-AS",
        "scientific_name": "Alosa sapidissima",
        "common_name": "American Shad",
        "taxonomic_group": "Fish",
        "life_stage": "Yolk-Sac Larvae",
        "sampling_events": 1,
        "biological_records": 1,
        "mean_relative_abundance": 1.68,
        "total_abundance": 0
      }
    },
    {
      "type": "Feature",
      "geometry": {
        "type": "Point",
        "coordinates": [
          -73.95692,
          41.57982
        ]
      },
      "properties": {
        "station_id": "PK08",
        "station_name": "Region 7 Poughkeepsie Station 8",
        "river_mile": 68.2,
        "region": "Region 7 - Poughkeepsie",
        "region_name": "Poughkeepsie",
        "region_code": "PK",
        "region_number": 7,
        "river_mile_range": "62-76",
        "year": 2016,
        "month": 5,
        "day": 15,
        "gear_type": "Beach Seine",
        "program": "Beach Seine Survey",
        "taxon_id": "TX-SB",
        "scientific_name": "Morone saxatilis",
        "common_name": "Striped Bass",
        "taxonomic_group": "Fish",
        "life_stage": "Post-Yolk-Sac Larvae",
        "sampling_events": 1,
        "biological_records": 1,
        "mean_relative_abundance": 1.37,
        "total_abundance": 0
      }
    },
    {
      "type": "Feature",
      "geometry": {
        "type": "Point",
        "coordinates": [
          -73.99222,
          41.59113
        ]
      },
      "properties": {
        "station_id": "PK09",
        "station_name": "Region 7 Poughkeepsie Station 9",
        "river_mile": 69,
        "region": "Region 7 - Poughkeepsie",
        "region_name": "Poughkeepsie",
        "region_code": "PK",
        "region_number": 7,
        "river_mile_range": "62-76",
        "year": 2017,
        "month": 6,
        "day": 20,
        "gear_type": "Ichthyoplankton Net",
        "program": "Long River Survey",
        "taxon_id": "TX-WP",
        "scientific_name": "Morone americana",
        "common_name": "White Perch",
        "taxonomic_group": "Fish",
        "life_stage": "Young Of The Year",
        "sampling_events": 1,
        "biological_records": 1,
        "mean_relative_abundance": 1.79,
        "total_abundance": 0
      }
    },
    {
      "type": "Feature",
      "geometry": {
        "type": "Point",
        "coordinates": [
          -73.95298,
          41.60384
        ]
      },
      "properties": {
        "station_id": "PK10",
        "station_name": "Region 7 Poughkeepsie Station 10",
        "river_mile": 69.8,
        "region": "Region 7 - Poughkeepsie",
        "region_name": "Poughkeepsie",
        "region_code": "PK",
        "region_number": 7,
        "river_mile_range": "62-76",
        "year": 2018,
        "month": 7,
        "day": 25,
        "gear_type": "Beam Trawl",
        "program": "Fall Juvenile Survey",
        "taxon_id": "TX-BA",
        "scientific_name": "Anchoa mitchilli",
        "common_name": "Bay Anchovy",
        "taxonomic_group": "Fish",
        "life_stage": "Yearling",
        "sampling_events": 1,
        "biological_records": 1,
        "mean_relative_abundance": 0.81,
        "total_abundance": 0
      }
    },
    {
      "type": "Feature",
      "geometry": {
        "type": "Point",
        "coordinates": [
          -73.98464,
          41.61732
        ]
      },
      "properties": {
        "station_id": "PK11",
        "station_name": "Region 7 Poughkeepsie Station 11",
        "river_mile": 70.6,
        "region": "Region 7 - Poughkeepsie",
        "region_name": "Poughkeepsie",
        "region_code": "PK",
        "region_number": 7,
        "river_mile_range": "62-76",
        "year": 2019,
        "month": 8,
        "day": 2,
        "gear_type": "Beach Seine",
        "program": "Beach Seine Survey",
        "taxon_id": "TX-A",
        "scientific_name": "Alosa pseudoharengus",
        "common_name": "Alewife",
        "taxonomic_group": "Fish",
        "life_stage": "Adult",
        "sampling_events": 1,
        "biological_records": 1,
        "mean_relative_abundance": 1.35,
        "total_abundance": 0
      }
    },
    {
      "type": "Feature",
      "geometry": {
        "type": "Point",
        "coordinates": [
          -73.93979,
          41.6307
        ]
      },
      "properties": {
        "station_id": "PK12",
        "station_name": "Region 7 Poughkeepsie Station 12",
        "river_mile": 71.3,
        "region": "Region 7 - Poughkeepsie",
        "region_name": "Poughkeepsie",
        "region_code": "PK",
        "region_number": 7,
        "river_mile_range": "62-76",
        "year": 2020,
        "month": 9,
        "day": 7,
        "gear_type": "Ichthyoplankton Net",
        "program": "Long River Survey",
        "taxon_id": "TX-BH",
        "scientific_name": "Alosa aestivalis",
        "common_name": "Blueback Herring",
        "taxonomic_group": "Fish",
        "life_stage": "Egg",
        "sampling_events": 1,
        "biological_records": 1,
        "mean_relative_abundance": 3.78,
        "total_abundance": 0
      }
    },
    {
      "type": "Feature",
      "geometry": {
        "type": "Point",
        "coordinates": [
          -73.97268,
          41.64232
        ]
      },
      "properties": {
        "station_id": "PK13",
        "station_name": "Region 7 Poughkeepsie Station 13",
        "river_mile": 72.1,
        "region": "Region 7 - Poughkeepsie",
        "region_name": "Poughkeepsie",
        "region_code": "PK",
        "region_number": 7,
        "river_mile_range": "62-76",
        "year": 2021,
        "month": 10,
        "day": 12,
        "gear_type": "Beam Trawl",
        "program": "Fall Juvenile Survey",
        "taxon_id": "TX-RS",
        "scientific_name": "Osmerus mordax",
        "common_name": "Rainbow Smelt",
        "taxonomic_group": "Fish",
        "life_stage": "Yolk-Sac Larvae",
        "sampling_events": 1,
        "biological_records": 1,
        "mean_relative_abundance": 3.14,
        "total_abundance": 0
      }
    },
    {
      "type": "Feature",
      "geometry": {
        "type": "Point",
        "coordinates": [
          -73.93883,
          41.65387
        ]
      },
      "properties": {
        "station_id": "PK14",
        "station_name": "Region 7 Poughkeepsie Station 14",
        "river_mile": 72.9,
        "region": "Region 7 - Poughkeepsie",
        "region_name": "Poughkeepsie",
        "region_code": "PK",
        "region_number": 7,
        "river_mile_range": "62-76",
        "year": 2022,
        "month": 11,
        "day": 17,
        "gear_type": "Beach Seine",
        "program": "Beach Seine Survey",
        "taxon_id": "TX-YP",
        "scientific_name": "Perca flavescens",
        "common_name": "Yellow Perch",
        "taxonomic_group": "Fish",
        "life_stage": "Post-Yolk-Sac Larvae",
        "sampling_events": 1,
        "biological_records": 1,
        "mean_relative_abundance": 2.99,
        "total_abundance": 0
      }
    },
    {
      "type": "Feature",
      "geometry": {
        "type": "Point",
        "coordinates": [
          -73.97233,
          41.66746
        ]
      },
      "properties": {
        "station_id": "PK15",
        "station_name": "Region 7 Poughkeepsie Station 15",
        "river_mile": 73.7,
        "region": "Region 7 - Poughkeepsie",
        "region_name": "Poughkeepsie",
        "region_code": "PK",
        "region_number": 7,
        "river_mile_range": "62-76",
        "year": 2023,
        "month": 12,
        "day": 22,
        "gear_type": "Ichthyoplankton Net",
        "program": "Long River Survey",
        "taxon_id": "TX-SS",
        "scientific_name": "Notropis hudsonius",
        "common_name": "Spottail Shiner",
        "taxonomic_group": "Fish",
        "life_stage": "Young Of The Year",
        "sampling_events": 1,
        "biological_records": 1,
        "mean_relative_abundance": 1.6,
        "total_abundance": 0
      }
    },
    {
      "type": "Feature",
      "geometry": {
        "type": "Point",
        "coordinates": [
          -73.93127,
          41.67337
        ]
      },
      "properties": {
        "station_id": "PK16",
        "station_name": "Region 7 Poughkeepsie Station 16",
        "river_mile": 74.4,
        "region": "Region 7 - Poughkeepsie",
        "region_name": "Poughkeepsie",
        "region_code": "PK",
        "region_number": 7,
        "river_mile_range": "62-76",
        "year": 2024,
        "month": 1,
        "day": 27,
        "gear_type": "Beam Trawl",
        "program": "Fall Juvenile Survey",
        "taxon_id": "TX-B",
        "scientific_name": "Pomatomus saltatrix",
        "common_name": "Bluefish",
        "taxonomic_group": "Fish",
        "life_stage": "Yearling",
        "sampling_events": 1,
        "biological_records": 1,
        "mean_relative_abundance": 1.36,
        "total_abundance": 0
      }
    },
    {
      "type": "Feature",
      "geometry": {
        "type": "Point",
        "coordinates": [
          -73.96103,
          41.68817
        ]
      },
      "properties": {
        "station_id": "PK17",
        "station_name": "Region 7 Poughkeepsie Station 17",
        "river_mile": 75.2,
        "region": "Region 7 - Poughkeepsie",
        "region_name": "Poughkeepsie",
        "region_code": "PK",
        "region_number": 7,
        "river_mile_range": "62-76",
        "year": 2010,
        "month": 2,
        "day": 4,
        "gear_type": "Beach Seine",
        "program": "Beach Seine Survey",
        "taxon_id": "TX-H",
        "scientific_name": "Trinectes maculatus",
        "common_name": "Hogchoker",
        "taxonomic_group": "Fish",
        "life_stage": "Adult",
        "sampling_events": 1,
        "biological_records": 1,
        "mean_relative_abundance": 1.71,
        "total_abundance": 0
      }
    },
    {
      "type": "Feature",
      "geometry": {
        "type": "Point",
        "coordinates": [
          -73.95927,
          41.74179
        ]
      },
      "properties": {
        "station_id": "HP01",
        "station_name": "Region 8 Hyde Park Station 1",
        "river_mile": 78.6,
        "region": "Region 8 - Hyde Park",
        "region_name": "Hyde Park",
        "region_code": "HP",
        "region_number": 8,
        "river_mile_range": "77-85",
        "year": 2011,
        "month": 1,
        "day": 9,
        "gear_type": "Beach Seine",
        "program": "Beach Seine Survey",
        "taxon_id": "TX-H",
        "scientific_name": "Trinectes maculatus",
        "common_name": "Hogchoker",
        "taxonomic_group": "Fish",
        "life_stage": "Post-Yolk-Sac Larvae",
        "sampling_events": 1,
        "biological_records": 1,
        "mean_relative_abundance": 1.42,
        "total_abundance": 0
      }
    },
    {
      "type": "Feature",
      "geometry": {
        "type": "Point",
        "coordinates": [
          -73.92466,
          41.76783
        ]
      },
      "properties": {
        "station_id": "HP02",
        "station_name": "Region 8 Hyde Park Station 2",
        "river_mile": 80.2,
        "region": "Region 8 - Hyde Park",
        "region_name": "Hyde Park",
        "region_code": "HP",
        "region_number": 8,
        "river_mile_range": "77-85",
        "year": 2012,
        "month": 2,
        "day": 14,
        "gear_type": "Ichthyoplankton Net",
        "program": "Long River Survey",
        "taxon_id": "TX-AM",
        "scientific_name": "Brevoortia tyrannus",
        "common_name": "Atlantic Menhaden",
        "taxonomic_group": "Fish",
        "life_stage": "Young Of The Year",
        "sampling_events": 1,
        "biological_records": 1,
        "mean_relative_abundance": 1.34,
        "total_abundance": 0
      }
    },
    {
      "type": "Feature",
      "geometry": {
        "type": "Point",
        "coordinates": [
          -73.96642,
          41.78907
        ]
      },
      "properties": {
        "station_id": "HP03",
        "station_name": "Region 8 Hyde Park Station 3",
        "river_mile": 81.8,
        "region": "Region 8 - Hyde Park",
        "region_name": "Hyde Park",
        "region_code": "HP",
        "region_number": 8,
        "river_mile_range": "77-85",
        "year": 2013,
        "month": 3,
        "day": 19,
        "gear_type": "Beam Trawl",
        "program": "Fall Juvenile Survey",
        "taxon_id": "TX-AT",
        "scientific_name": "Microgadus tomcod",
        "common_name": "Atlantic Tomcod",
        "taxonomic_group": "Fish",
        "life_stage": "Yearling",
        "sampling_events": 1,
        "biological_records": 1,
        "mean_relative_abundance": 0.83,
        "total_abundance": 0
      }
    },
    {
      "type": "Feature",
      "geometry": {
        "type": "Point",
        "coordinates": [
          -73.93707,
          41.81256
        ]
      },
      "properties": {
        "station_id": "HP04",
        "station_name": "Region 8 Hyde Park Station 4",
        "river_mile": 83.4,
        "region": "Region 8 - Hyde Park",
        "region_name": "Hyde Park",
        "region_code": "HP",
        "region_number": 8,
        "river_mile_range": "77-85",
        "year": 2014,
        "month": 4,
        "day": 24,
        "gear_type": "Beach Seine",
        "program": "Beach Seine Survey",
        "taxon_id": "TX-AS",
        "scientific_name": "Alosa sapidissima",
        "common_name": "American Shad",
        "taxonomic_group": "Fish",
        "life_stage": "Adult",
        "sampling_events": 1,
        "biological_records": 1,
        "mean_relative_abundance": 0.65,
        "total_abundance": 0
      }
    },
    {
      "type": "Feature",
      "geometry": {
        "type": "Point",
        "coordinates": [
          -73.96344,
          41.86033
        ]
      },
      "properties": {
        "station_id": "KG01",
        "station_name": "Region 9 Kingston Station 1",
        "river_mile": 86.8,
        "region": "Region 9 - Kingston",
        "region_name": "Kingston",
        "region_code": "KG",
        "region_number": 9,
        "river_mile_range": "86-93",
        "year": 2013,
        "month": 4,
        "day": 10,
        "gear_type": "Ichthyoplankton Net",
        "program": "Long River Survey",
        "taxon_id": "TX-AS",
        "scientific_name": "Alosa sapidissima",
        "common_name": "American Shad",
        "taxonomic_group": "Fish",
        "life_stage": "Young Of The Year",
        "sampling_events": 1,
        "biological_records": 1,
        "mean_relative_abundance": 2.53,
        "total_abundance": 0
      }
    },
    {
      "type": "Feature",
      "geometry": {
        "type": "Point",
        "coordinates": [
          -73.93766,
          41.86638
        ]
      },
      "properties": {
        "station_id": "KG02",
        "station_name": "Region 9 Kingston Station 2",
        "river_mile": 87.6,
        "region": "Region 9 - Kingston",
        "region_name": "Kingston",
        "region_code": "KG",
        "region_number": 9,
        "river_mile_range": "86-93",
        "year": 2014,
        "month": 5,
        "day": 15,
        "gear_type": "Beam Trawl",
        "program": "Fall Juvenile Survey",
        "taxon_id": "TX-SB",
        "scientific_name": "Morone saxatilis",
        "common_name": "Striped Bass",
        "taxonomic_group": "Fish",
        "life_stage": "Yearling",
        "sampling_events": 1,
        "biological_records": 1,
        "mean_relative_abundance": 0.25,
        "total_abundance": 0
      }
    },
    {
      "type": "Feature",
      "geometry": {
        "type": "Point",
        "coordinates": [
          -73.978,
          41.87781
        ]
      },
      "properties": {
        "station_id": "KG03",
        "station_name": "Region 9 Kingston Station 3",
        "river_mile": 88.3,
        "region": "Region 9 - Kingston",
        "region_name": "Kingston",
        "region_code": "KG",
        "region_number": 9,
        "river_mile_range": "86-93",
        "year": 2015,
        "month": 6,
        "day": 20,
        "gear_type": "Beach Seine",
        "program": "Beach Seine Survey",
        "taxon_id": "TX-WP",
        "scientific_name": "Morone americana",
        "common_name": "White Perch",
        "taxonomic_group": "Fish",
        "life_stage": "Adult",
        "sampling_events": 1,
        "biological_records": 1,
        "mean_relative_abundance": 1.63,
        "total_abundance": 0
      }
    },
    {
      "type": "Feature",
      "geometry": {
        "type": "Point",
        "coordinates": [
          -73.94123,
          41.88523
        ]
      },
      "properties": {
        "station_id": "KG04",
        "station_name": "Region 9 Kingston Station 4",
        "river_mile": 89.1,
        "region": "Region 9 - Kingston",
        "region_name": "Kingston",
        "region_code": "KG",
        "region_number": 9,
        "river_mile_range": "86-93",
        "year": 2016,
        "month": 7,
        "day": 25,
        "gear_type": "Ichthyoplankton Net",
        "program": "Long River Survey",
        "taxon_id": "TX-BA",
        "scientific_name": "Anchoa mitchilli",
        "common_name": "Bay Anchovy",
        "taxonomic_group": "Fish",
        "life_stage": "Egg",
        "sampling_events": 1,
        "biological_records": 1,
        "mean_relative_abundance": 1.79,
        "total_abundance": 0
      }
    },
    {
      "type": "Feature",
      "geometry": {
        "type": "Point",
        "coordinates": [
          -73.97289,
          41.89377
        ]
      },
      "properties": {
        "station_id": "KG05",
        "station_name": "Region 9 Kingston Station 5",
        "river_mile": 89.9,
        "region": "Region 9 - Kingston",
        "region_name": "Kingston",
        "region_code": "KG",
        "region_number": 9,
        "river_mile_range": "86-93",
        "year": 2017,
        "month": 8,
        "day": 2,
        "gear_type": "Beam Trawl",
        "program": "Fall Juvenile Survey",
        "taxon_id": "TX-A",
        "scientific_name": "Alosa pseudoharengus",
        "common_name": "Alewife",
        "taxonomic_group": "Fish",
        "life_stage": "Yolk-Sac Larvae",
        "sampling_events": 1,
        "biological_records": 1,
        "mean_relative_abundance": 1.56,
        "total_abundance": 0
      }
    },
    {
      "type": "Feature",
      "geometry": {
        "type": "Point",
        "coordinates": [
          -73.93701,
          41.90503
        ]
      },
      "properties": {
        "station_id": "KG06",
        "station_name": "Region 9 Kingston Station 6",
        "river_mile": 90.7,
        "region": "Region 9 - Kingston",
        "region_name": "Kingston",
        "region_code": "KG",
        "region_number": 9,
        "river_mile_range": "86-93",
        "year": 2018,
        "month": 9,
        "day": 7,
        "gear_type": "Beach Seine",
        "program": "Beach Seine Survey",
        "taxon_id": "TX-BH",
        "scientific_name": "Alosa aestivalis",
        "common_name": "Blueback Herring",
        "taxonomic_group": "Fish",
        "life_stage": "Post-Yolk-Sac Larvae",
        "sampling_events": 1,
        "biological_records": 1,
        "mean_relative_abundance": 2.36,
        "total_abundance": 0
      }
    },
    {
      "type": "Feature",
      "geometry": {
        "type": "Point",
        "coordinates": [
          -73.97266,
          41.914
        ]
      },
      "properties": {
        "station_id": "KG07",
        "station_name": "Region 9 Kingston Station 7",
        "river_mile": 91.4,
        "region": "Region 9 - Kingston",
        "region_name": "Kingston",
        "region_code": "KG",
        "region_number": 9,
        "river_mile_range": "86-93",
        "year": 2019,
        "month": 10,
        "day": 12,
        "gear_type": "Ichthyoplankton Net",
        "program": "Long River Survey",
        "taxon_id": "TX-RS",
        "scientific_name": "Osmerus mordax",
        "common_name": "Rainbow Smelt",
        "taxonomic_group": "Fish",
        "life_stage": "Young Of The Year",
        "sampling_events": 1,
        "biological_records": 1,
        "mean_relative_abundance": 2.27,
        "total_abundance": 0
      }
    },
    {
      "type": "Feature",
      "geometry": {
        "type": "Point",
        "coordinates": [
          -73.94184,
          41.92341
        ]
      },
      "properties": {
        "station_id": "KG08",
        "station_name": "Region 9 Kingston Station 8",
        "river_mile": 92.2,
        "region": "Region 9 - Kingston",
        "region_name": "Kingston",
        "region_code": "KG",
        "region_number": 9,
        "river_mile_range": "86-93",
        "year": 2020,
        "month": 11,
        "day": 17,
        "gear_type": "Beam Trawl",
        "program": "Fall Juvenile Survey",
        "taxon_id": "TX-YP",
        "scientific_name": "Perca flavescens",
        "common_name": "Yellow Perch",
        "taxonomic_group": "Fish",
        "life_stage": "Yearling",
        "sampling_events": 1,
        "biological_records": 1,
        "mean_relative_abundance": 2.28,
        "total_abundance": 0
      }
    },
    {
      "type": "Feature",
      "geometry": {
        "type": "Point",
        "coordinates": [
          -73.97129,
          41.95234
        ]
      },
      "properties": {
        "station_id": "SG01",
        "station_name": "Region 10 Saugerties Station 1",
        "river_mile": 94.9,
        "region": "Region 10 - Saugerties",
        "region_name": "Saugerties",
        "region_code": "SG",
        "region_number": 10,
        "river_mile_range": "94-106",
        "year": 2015,
        "month": 7,
        "day": 11,
        "gear_type": "Beam Trawl",
        "program": "Fall Juvenile Survey",
        "taxon_id": "TX-BA",
        "scientific_name": "Anchoa mitchilli",
        "common_name": "Bay Anchovy",
        "taxonomic_group": "Fish",
        "life_stage": "Yearling",
        "sampling_events": 1,
        "biological_records": 1,
        "mean_relative_abundance": 0.69,
        "total_abundance": 0
      }
    },
    {
      "type": "Feature",
      "geometry": {
        "type": "Point",
        "coordinates": [
          -73.9327,
          41.96161
        ]
      },
      "properties": {
        "station_id": "SG02",
        "station_name": "Region 10 Saugerties Station 2",
        "river_mile": 95.8,
        "region": "Region 10 - Saugerties",
        "region_name": "Saugerties",
        "region_code": "SG",
        "region_number": 10,
        "river_mile_range": "94-106",
        "year": 2016,
        "month": 8,
        "day": 16,
        "gear_type": "Beach Seine",
        "program": "Beach Seine Survey",
        "taxon_id": "TX-A",
        "scientific_name": "Alosa pseudoharengus",
        "common_name": "Alewife",
        "taxonomic_group": "Fish",
        "life_stage": "Adult",
        "sampling_events": 1,
        "biological_records": 1,
        "mean_relative_abundance": 1.24,
        "total_abundance": 0
      }
    },
    {
      "type": "Feature",
      "geometry": {
        "type": "Point",
        "coordinates": [
          -73.97222,
          41.97442
        ]
      },
      "properties": {
        "station_id": "SG03",
        "station_name": "Region 10 Saugerties Station 3",
        "river_mile": 96.8,
        "region": "Region 10 - Saugerties",
        "region_name": "Saugerties",
        "region_code": "SG",
        "region_number": 10,
        "river_mile_range": "94-106",
        "year": 2017,
        "month": 9,
        "day": 21,
        "gear_type": "Ichthyoplankton Net",
        "program": "Long River Survey",
        "taxon_id": "TX-BH",
        "scientific_name": "Alosa aestivalis",
        "common_name": "Blueback Herring",
        "taxonomic_group": "Fish",
        "life_stage": "Egg",
        "sampling_events": 1,
        "biological_records": 1,
        "mean_relative_abundance": 3.91,
        "total_abundance": 0
      }
    },
    {
      "type": "Feature",
      "geometry": {
        "type": "Point",
        "coordinates": [
          -73.93252,
          41.98196
        ]
      },
      "properties": {
        "station_id": "SG04",
        "station_name": "Region 10 Saugerties Station 4",
        "river_mile": 97.7,
        "region": "Region 10 - Saugerties",
        "region_name": "Saugerties",
        "region_code": "SG",
        "region_number": 10,
        "river_mile_range": "94-106",
        "year": 2018,
        "month": 10,
        "day": 26,
        "gear_type": "Beam Trawl",
        "program": "Fall Juvenile Survey",
        "taxon_id": "TX-RS",
        "scientific_name": "Osmerus mordax",
        "common_name": "Rainbow Smelt",
        "taxonomic_group": "Fish",
        "life_stage": "Yolk-Sac Larvae",
        "sampling_events": 1,
        "biological_records": 1,
        "mean_relative_abundance": 2.97,
        "total_abundance": 0
      }
    },
    {
      "type": "Feature",
      "geometry": {
        "type": "Point",
        "coordinates": [
          -73.96386,
          41.99575
        ]
      },
      "properties": {
        "station_id": "SG05",
        "station_name": "Region 10 Saugerties Station 5",
        "river_mile": 98.6,
        "region": "Region 10 - Saugerties",
        "region_name": "Saugerties",
        "region_code": "SG",
        "region_number": 10,
        "river_mile_range": "94-106",
        "year": 2019,
        "month": 11,
        "day": 3,
        "gear_type": "Beach Seine",
        "program": "Beach Seine Survey",
        "taxon_id": "TX-YP",
        "scientific_name": "Perca flavescens",
        "common_name": "Yellow Perch",
        "taxonomic_group": "Fish",
        "life_stage": "Post-Yolk-Sac Larvae",
        "sampling_events": 1,
        "biological_records": 1,
        "mean_relative_abundance": 2.23,
        "total_abundance": 0
      }
    },
    {
      "type": "Feature",
      "geometry": {
        "type": "Point",
        "coordinates": [
          -73.92306,
          42.0062
        ]
      },
      "properties": {
        "station_id": "SG06",
        "station_name": "Region 10 Saugerties Station 6",
        "river_mile": 99.5,
        "region": "Region 10 - Saugerties",
        "region_name": "Saugerties",
        "region_code": "SG",
        "region_number": 10,
        "river_mile_range": "94-106",
        "year": 2020,
        "month": 12,
        "day": 8,
        "gear_type": "Ichthyoplankton Net",
        "program": "Long River Survey",
        "taxon_id": "TX-SS",
        "scientific_name": "Notropis hudsonius",
        "common_name": "Spottail Shiner",
        "taxonomic_group": "Fish",
        "life_stage": "Young Of The Year",
        "sampling_events": 1,
        "biological_records": 1,
        "mean_relative_abundance": 0.14,
        "total_abundance": 0
      }
    },
    {
      "type": "Feature",
      "geometry": {
        "type": "Point",
        "coordinates": [
          -73.95798,
          42.01813
        ]
      },
      "properties": {
        "station_id": "SG07",
        "station_name": "Region 10 Saugerties Station 7",
        "river_mile": 100.5,
        "region": "Region 10 - Saugerties",
        "region_name": "Saugerties",
        "region_code": "SG",
        "region_number": 10,
        "river_mile_range": "94-106",
        "year": 2021,
        "month": 1,
        "day": 13,
        "gear_type": "Beam Trawl",
        "program": "Fall Juvenile Survey",
        "taxon_id": "TX-B",
        "scientific_name": "Pomatomus saltatrix",
        "common_name": "Bluefish",
        "taxonomic_group": "Fish",
        "life_stage": "Yearling",
        "sampling_events": 1,
        "biological_records": 1,
        "mean_relative_abundance": 2.93,
        "total_abundance": 0
      }
    },
    {
      "type": "Feature",
      "geometry": {
        "type": "Point",
        "coordinates": [
          -73.9246,
          42.02435
        ]
      },
      "properties": {
        "station_id": "SG08",
        "station_name": "Region 10 Saugerties Station 8",
        "river_mile": 101.4,
        "region": "Region 10 - Saugerties",
        "region_name": "Saugerties",
        "region_code": "SG",
        "region_number": 10,
        "river_mile_range": "94-106",
        "year": 2022,
        "month": 2,
        "day": 18,
        "gear_type": "Beach Seine",
        "program": "Beach Seine Survey",
        "taxon_id": "TX-H",
        "scientific_name": "Trinectes maculatus",
        "common_name": "Hogchoker",
        "taxonomic_group": "Fish",
        "life_stage": "Adult",
        "sampling_events": 1,
        "biological_records": 1,
        "mean_relative_abundance": 1.13,
        "total_abundance": 0
      }
    },
    {
      "type": "Feature",
      "geometry": {
        "type": "Point",
        "coordinates": [
          -73.96185,
          42.03743
        ]
      },
      "properties": {
        "station_id": "SG09",
        "station_name": "Region 10 Saugerties Station 9",
        "river_mile": 102.3,
        "region": "Region 10 - Saugerties",
        "region_name": "Saugerties",
        "region_code": "SG",
        "region_number": 10,
        "river_mile_range": "94-106",
        "year": 2023,
        "month": 3,
        "day": 23,
        "gear_type": "Ichthyoplankton Net",
        "program": "Long River Survey",
        "taxon_id": "TX-AM",
        "scientific_name": "Brevoortia tyrannus",
        "common_name": "Atlantic Menhaden",
        "taxonomic_group": "Fish",
        "life_stage": "Egg",
        "sampling_events": 1,
        "biological_records": 1,
        "mean_relative_abundance": 2.5,
        "total_abundance": 0
      }
    },
    {
      "type": "Feature",
      "geometry": {
        "type": "Point",
        "coordinates": [
          -73.92379,
          42.04914
        ]
      },
      "properties": {
        "station_id": "SG10",
        "station_name": "Region 10 Saugerties Station 10",
        "river_mile": 103.2,
        "region": "Region 10 - Saugerties",
        "region_name": "Saugerties",
        "region_code": "SG",
        "region_number": 10,
        "river_mile_range": "94-106",
        "year": 2024,
        "month": 4,
        "day": 28,
        "gear_type": "Beam Trawl",
        "program": "Fall Juvenile Survey",
        "taxon_id": "TX-AT",
        "scientific_name": "Microgadus tomcod",
        "common_name": "Atlantic Tomcod",
        "taxonomic_group": "Fish",
        "life_stage": "Yolk-Sac Larvae",
        "sampling_events": 1,
        "biological_records": 1,
        "mean_relative_abundance": 0.22,
        "total_abundance": 0
      }
    },
    {
      "type": "Feature",
      "geometry": {
        "type": "Point",
        "coordinates": [
          -73.95118,
          42.05973
        ]
      },
      "properties": {
        "station_id": "SG11",
        "station_name": "Region 10 Saugerties Station 11",
        "river_mile": 104.2,
        "region": "Region 10 - Saugerties",
        "region_name": "Saugerties",
        "region_code": "SG",
        "region_number": 10,
        "river_mile_range": "94-106",
        "year": 2010,
        "month": 5,
        "day": 5,
        "gear_type": "Beach Seine",
        "program": "Beach Seine Survey",
        "taxon_id": "TX-AS",
        "scientific_name": "Alosa sapidissima",
        "common_name": "American Shad",
        "taxonomic_group": "Fish",
        "life_stage": "Post-Yolk-Sac Larvae",
        "sampling_events": 1,
        "biological_records": 1,
        "mean_relative_abundance": 1.28,
        "total_abundance": 0
      }
    },
    {
      "type": "Feature",
      "geometry": {
        "type": "Point",
        "coordinates": [
          -73.91123,
          42.06688
        ]
      },
      "properties": {
        "station_id": "SG12",
        "station_name": "Region 10 Saugerties Station 12",
        "river_mile": 105.1,
        "region": "Region 10 - Saugerties",
        "region_name": "Saugerties",
        "region_code": "SG",
        "region_number": 10,
        "river_mile_range": "94-106",
        "year": 2011,
        "month": 6,
        "day": 10,
        "gear_type": "Ichthyoplankton Net",
        "program": "Long River Survey",
        "taxon_id": "TX-SB",
        "scientific_name": "Morone saxatilis",
        "common_name": "Striped Bass",
        "taxonomic_group": "Fish",
        "life_stage": "Young Of The Year",
        "sampling_events": 1,
        "biological_records": 1,
        "mean_relative_abundance": 0.93,
        "total_abundance": 0
      }
    },
    {
      "type": "Feature",
      "geometry": {
        "type": "Point",
        "coordinates": [
          -73.87769,
          42.17673
        ]
      },
      "properties": {
        "station_id": "CS01",
        "station_name": "Region 11 Catskill Station 1",
        "river_mile": 115.5,
        "region": "Region 11 - Catskill",
        "region_name": "Catskill",
        "region_code": "CS",
        "region_number": 11,
        "river_mile_range": "107-124",
        "year": 2017,
        "month": 10,
        "day": 12,
        "gear_type": "Beach Seine",
        "program": "Beach Seine Survey",
        "taxon_id": "TX-RS",
        "scientific_name": "Osmerus mordax",
        "common_name": "Rainbow Smelt",
        "taxonomic_group": "Fish",
        "life_stage": "Adult",
        "sampling_events": 1,
        "biological_records": 1,
        "mean_relative_abundance": 0.21,
        "total_abundance": 0
      }
    },
    {
      "type": "Feature",
      "geometry": {
        "type": "Point",
        "coordinates": [
          -73.80655,
          42.31365
        ]
      },
      "properties": {
        "station_id": "AL01",
        "station_name": "Region 12 Albany Station 1",
        "river_mile": 128,
        "region": "Region 12 - Albany",
        "region_name": "Albany",
        "region_code": "AL",
        "region_number": 12,
        "river_mile_range": "125-152",
        "year": 2019,
        "month": 1,
        "day": 13,
        "gear_type": "Ichthyoplankton Net",
        "program": "Long River Survey",
        "taxon_id": "TX-B",
        "scientific_name": "Pomatomus saltatrix",
        "common_name": "Bluefish",
        "taxonomic_group": "Fish",
        "life_stage": "Egg",
        "sampling_events": 1,
        "biological_records": 1,
        "mean_relative_abundance": 4.37,
        "total_abundance": 0
      }
    },
    {
      "type": "Feature",
      "geometry": {
        "type": "Point",
        "coordinates": [
          -73.77177,
          42.35812
        ]
      },
      "properties": {
        "station_id": "AL02",
        "station_name": "Region 12 Albany Station 2",
        "river_mile": 131,
        "region": "Region 12 - Albany",
        "region_name": "Albany",
        "region_code": "AL",
        "region_number": 12,
        "river_mile_range": "125-152",
        "year": 2020,
        "month": 2,
        "day": 18,
        "gear_type": "Beam Trawl",
        "program": "Fall Juvenile Survey",
        "taxon_id": "TX-H",
        "scientific_name": "Trinectes maculatus",
        "common_name": "Hogchoker",
        "taxonomic_group": "Fish",
        "life_stage": "Yolk-Sac Larvae",
        "sampling_events": 1,
        "biological_records": 1,
        "mean_relative_abundance": 2.25,
        "total_abundance": 0
      }
    },
    {
      "type": "Feature",
      "geometry": {
        "type": "Point",
        "coordinates": [
          -73.8062,
          42.39987
        ]
      },
      "properties": {
        "station_id": "AL03",
        "station_name": "Region 12 Albany Station 3",
        "river_mile": 134,
        "region": "Region 12 - Albany",
        "region_name": "Albany",
        "region_code": "AL",
        "region_number": 12,
        "river_mile_range": "125-152",
        "year": 2021,
        "month": 3,
        "day": 23,
        "gear_type": "Beach Seine",
        "program": "Beach Seine Survey",
        "taxon_id": "TX-AM",
        "scientific_name": "Brevoortia tyrannus",
        "common_name": "Atlantic Menhaden",
        "taxonomic_group": "Fish",
        "life_stage": "Post-Yolk-Sac Larvae",
        "sampling_events": 1,
        "biological_records": 1,
        "mean_relative_abundance": 1.75,
        "total_abundance": 0
      }
    },
    {
      "type": "Feature",
      "geometry": {
        "type": "Point",
        "coordinates": [
          -73.76369,
          42.44283
        ]
      },
      "properties": {
        "station_id": "AL04",
        "station_name": "Region 12 Albany Station 4",
        "river_mile": 137,
        "region": "Region 12 - Albany",
        "region_name": "Albany",
        "region_code": "AL",
        "region_number": 12,
        "river_mile_range": "125-152",
        "year": 2022,
        "month": 4,
        "day": 28,
        "gear_type": "Ichthyoplankton Net",
        "program": "Long River Survey",
        "taxon_id": "TX-AT",
        "scientific_name": "Microgadus tomcod",
        "common_name": "Atlantic Tomcod",
        "taxonomic_group": "Fish",
        "life_stage": "Young Of The Year",
        "sampling_events": 1,
        "biological_records": 1,
        "mean_relative_abundance": 0.56,
        "total_abundance": 0
      }
    },
    {
      "type": "Feature",
      "geometry": {
        "type": "Point",
        "coordinates": [
          -73.79204,
          42.48206
        ]
      },
      "properties": {
        "station_id": "AL05",
        "station_name": "Region 12 Albany Station 5",
        "river_mile": 140,
        "region": "Region 12 - Albany",
        "region_name": "Albany",
        "region_code": "AL",
        "region_number": 12,
        "river_mile_range": "125-152",
        "year": 2023,
        "month": 5,
        "day": 5,
        "gear_type": "Beam Trawl",
        "program": "Fall Juvenile Survey",
        "taxon_id": "TX-AS",
        "scientific_name": "Alosa sapidissima",
        "common_name": "American Shad",
        "taxonomic_group": "Fish",
        "life_stage": "Yearling",
        "sampling_events": 1,
        "biological_records": 1,
        "mean_relative_abundance": 3.03,
        "total_abundance": 0
      }
    },
    {
      "type": "Feature",
      "geometry": {
        "type": "Point",
        "coordinates": [
          -73.74543,
          42.5254
        ]
      },
      "properties": {
        "station_id": "AL06",
        "station_name": "Region 12 Albany Station 6",
        "river_mile": 143,
        "region": "Region 12 - Albany",
        "region_name": "Albany",
        "region_code": "AL",
        "region_number": 12,
        "river_mile_range": "125-152",
        "year": 2024,
        "month": 6,
        "day": 10,
        "gear_type": "Beach Seine",
        "program": "Beach Seine Survey",
        "taxon_id": "TX-SB",
        "scientific_name": "Morone saxatilis",
        "common_name": "Striped Bass",
        "taxonomic_group": "Fish",
        "life_stage": "Adult",
        "sampling_events": 1,
        "biological_records": 1,
        "mean_relative_abundance": 0.95,
        "total_abundance": 0
      }
    },
    {
      "type": "Feature",
      "geometry": {
        "type": "Point",
        "coordinates": [
          -73.77236,
          42.56933
        ]
      },
      "properties": {
        "station_id": "AL07",
        "station_name": "Region 12 Albany Station 7",
        "river_mile": 146,
        "region": "Region 12 - Albany",
        "region_name": "Albany",
        "region_code": "AL",
        "region_number": 12,
        "river_mile_range": "125-152",
        "year": 2010,
        "month": 7,
        "day": 15,
        "gear_type": "Ichthyoplankton Net",
        "program": "Long River Survey",
        "taxon_id": "TX-WP",
        "scientific_name": "Morone americana",
        "common_name": "White Perch",
        "taxonomic_group": "Fish",
        "life_stage": "Egg",
        "sampling_events": 1,
        "biological_records": 1,
        "mean_relative_abundance": 3.41,
        "total_abundance": 0
      }
    },
    {
      "type": "Feature",
      "geometry": {
        "type": "Point",
        "coordinates": [
          -73.73682,
          42.61117
        ]
      },
      "properties": {
        "station_id": "AL08",
        "station_name": "Region 12 Albany Station 8",
        "river_mile": 149,
        "region": "Region 12 - Albany",
        "region_name": "Albany",
        "region_code": "AL",
        "region_number": 12,
        "river_mile_range": "125-152",
        "year": 2011,
        "month": 8,
        "day": 20,
        "gear_type": "Beam Trawl",
        "program": "Fall Juvenile Survey",
        "taxon_id": "TX-BA",
        "scientific_name": "Anchoa mitchilli",
        "common_name": "Bay Anchovy",
        "taxonomic_group": "Fish",
        "life_stage": "Yolk-Sac Larvae",
        "sampling_events": 1,
        "biological_records": 1,
        "mean_relative_abundance": 0.42,
        "total_abundance": 0
      }
    }
  ]
}