{
  "type": "FeatureCollection",
  "features": [
    {
      "type": "Feature",
      "geometry": {
        "type": "Point",
        "coordinates": [
          -74.03436,
          40.59067
        ]
      },
      "properties": {
        "station_id": "BT01",
        "station_name": "Battery Environmental Record 1",
        "river_mile": 2.8,
        "region": "Region 0 - Battery",
        "region_name": "Battery",
        "region_code": "BT",
        "region_number": 0,
        "river_mile_range": "0-11",
        "year": 2010,
        "month": 1,
        "day": 1,
        "sample_date": "2010-01-01",
        "environmental_records": 1,
        "mean_temperature_c": 9.42,
        "mean_salinity_psu": 11.59,
        "mean_dissolved_oxygen_mg_l": 10.41,
        "mean_turbidity_ntu": 5.18,
        "mean_chlorophyll_a": 2.78
      }
    },
    {
      "type": "Feature",
      "geometry": {
        "type": "Point",
        "coordinates": [
          -74,
          40.6337
        ]
      },
      "properties": {
        "station_id": "BT02",
        "station_name": "Battery Environmental Record 2",
        "river_mile": 5.5,
        "region": "Region 0 - Battery",
        "region_name": "Battery",
        "region_code": "BT",
        "region_number": 0,
        "river_mile_range": "0-11",
        "year": 2011,
        "month": 2,
        "day": 6,
        "sample_date": "2011-02-06",
        "environmental_records": 1,
        "mean_temperature_c": 11.19,
        "mean_salinity_psu": 11.59,
        "mean_dissolved_oxygen_mg_l": 10.26,
        "mean_turbidity_ntu": 6.26,
        "mean_chlorophyll_a": 3.41
      }
    },
    {
      "type": "Feature",
      "geometry": {
        "type": "Point",
        "coordinates": [
          -74.02536,
          40.67827
        ]
      },
      "properties": {
        "station_id": "BT03",
        "station_name": "Battery Environmental Record 3",
        "river_mile": 8.3,
        "region": "Region 0 - Battery",
        "region_name": "Battery",
        "region_code": "BT",
        "region_number": 0,
        "river_mile_range": "0-11",
        "year": 2012,
        "month": 3,
        "day": 11,
        "sample_date": "2012-03-11",
        "environmental_records": 1,
        "mean_temperature_c": 12.96,
        "mean_salinity_psu": 11.58,
        "mean_dissolved_oxygen_mg_l": 10.11,
        "mean_turbidity_ntu": 7.35,
        "mean_chlorophyll_a": 4.04
      }
    },
    {
      "type": "Feature",
      "geometry": {
        "type": "Point",
        "coordinates": [
          -73.99783,
          40.74857
        ]
      },
      "properties": {
        "station_id": "YK01",
        "station_name": "Yonkers Environmental Record 1",
        "river_mile": 12.7,
        "region": "Region 1 - Yonkers",
        "region_name": "Yonkers",
        "region_code": "YK",
        "region_number": 1,
        "river_mile_range": "12-23",
        "year": 2012,
        "month": 4,
        "day": 2,
        "sample_date": "2012-04-02",
        "environmental_records": 1,
        "mean_temperature_c": 13.67,
        "mean_salinity_psu": 10.85,
        "mean_dissolved_oxygen_mg_l": 9.72,
        "mean_turbidity_ntu": 5.84,
        "mean_chlorophyll_a": 3.62
      }
    },
    {
      "type": "Feature",
      "geometry": {
        "type": "Point",
        "coordinates": [
          -73.96417,
          40.76453
        ]
      },
      "properties": {
        "station_id": "YK02",
        "station_name": "Yonkers Environmental Record 2",
        "river_mile": 13.5,
        "region": "Region 1 - Yonkers",
        "region_name": "Yonkers",
        "region_code": "YK",
        "region_number": 1,
        "river_mile_range": "12-23",
        "year": 2013,
        "month": 5,
        "day": 7,
        "sample_date": "2013-05-07",
        "environmental_records": 1,
        "mean_temperature_c": 15.46,
        "mean_salinity_psu": 10.99,
        "mean_dissolved_oxygen_mg_l": 9.57,
        "mean_turbidity_ntu": 6.79,
        "mean_chlorophyll_a": 4.25
      }
    },
    {
      "type": "Feature",
      "geometry": {
        "type": "Point",
        "coordinates": [
          -73.99133,
          40.77867
        ]
      },
      "properties": {
        "station_id": "YK03",
        "station_name": "Yonkers Environmental Record 3",
        "river_mile": 14.2,
        "region": "Region 1 - Yonkers",
        "region_name": "Yonkers",
        "region_code": "YK",
        "region_number": 1,
        "river_mile_range": "12-23",
        "year": 2014,
        "month": 6,
        "day": 12,
        "sample_date": "2014-06-12",
        "environmental_records": 1,
        "mean_temperature_c": 17.25,
        "mean_salinity_psu": 11.14,
        "mean_dissolved_oxygen_mg_l": 9.42,
        "mean_turbidity_ntu": 7.73,
        "mean_chlorophyll_a": 4.88
      }
    },
    {
      "type": "Feature",
      "geometry": {
        "type": "Point",
        "coordinates": [
          -73.9465,
          40.7928
        ]
      },
      "properties": {
        "station_id": "YK04",
        "station_name": "Yonkers Environmental Record 4",
        "river_mile": 14.9,
        "region": "Region 1 - Yonkers",
        "region_name": "Yonkers",
        "region_code": "YK",
        "region_number": 1,
        "river_mile_range": "12-23",
        "year": 2015,
        "month": 7,
        "day": 17,
        "sample_date": "2015-07-17",
        "environmental_records": 1,
        "mean_temperature_c": 19.05,
        "mean_salinity_psu": 10.68,
        "mean_dissolved_oxygen_mg_l": 9.27,
        "mean_turbidity_ntu": 8.68,
        "mean_chlorophyll_a": 5.51
      }
    },
    {
      "type": "Feature",
      "geometry": {
        "type": "Point",
        "coordinates": [
          -73.97283,
          40.80877
        ]
      },
      "properties": {
        "station_id": "YK05",
        "station_name": "Yonkers Environmental Record 5",
        "river_mile": 15.7,
        "region": "Region 1 - Yonkers",
        "region_name": "Yonkers",
        "region_code": "YK",
        "region_number": 1,
        "river_mile_range": "12-23",
        "year": 2016,
        "month": 8,
        "day": 22,
        "sample_date": "2016-08-22",
        "environmental_records": 1,
        "mean_temperature_c": 19.44,
        "mean_salinity_psu": 10.82,
        "mean_dissolved_oxygen_mg_l": 9.12,
        "mean_turbidity_ntu": 9.63,
        "mean_chlorophyll_a": 4.74
      }
    },
    {
      "type": "Feature",
      "geometry": {
        "type": "Point",
        "coordinates": [
          -73.94,
          40.8164
        ]
      },
      "properties": {
        "station_id": "YK06",
        "station_name": "Yonkers Environmental Record 6",
        "river_mile": 16.4,
        "region": "Region 1 - Yonkers",
        "region_name": "Yonkers",
        "region_code": "YK",
        "region_number": 1,
        "river_mile_range": "12-23",
        "year": 2017,
        "month": 9,
        "day": 27,
        "sample_date": "2017-09-27",
        "environmental_records": 1,
        "mean_temperature_c": 21.23,
        "mean_salinity_psu": 10.97,
        "mean_dissolved_oxygen_mg_l": 8.57,
        "mean_turbidity_ntu": 10.58,
        "mean_chlorophyll_a": 5.37
      }
    },
    {
      "type": "Feature",
      "geometry": {
        "type": "Point",
        "coordinates": [
          -73.96717,
          40.83053
        ]
      },
      "properties": {
        "station_id": "YK07",
        "station_name": "Yonkers Environmental Record 7",
        "river_mile": 17.1,
        "region": "Region 1 - Yonkers",
        "region_name": "Yonkers",
        "region_code": "YK",
        "region_number": 1,
        "river_mile_range": "12-23",
        "year": 2018,
        "month": 10,
        "day": 4,
        "sample_date": "2018-10-04",
        "environmental_records": 1,
        "mean_temperature_c": 23.02,
        "mean_salinity_psu": 10.52,
        "mean_dissolved_oxygen_mg_l": 8.42,
        "mean_turbidity_ntu": 6.13,
        "mean_chlorophyll_a": 6
      }
    },
    {
      "type": "Feature",
      "geometry": {
        "type": "Point",
        "coordinates": [
          -73.9215,
          40.8465
        ]
      },
      "properties": {
        "station_id": "YK08",
        "station_name": "Yonkers Environmental Record 8",
        "river_mile": 17.9,
        "region": "Region 1 - Yonkers",
        "region_name": "Yonkers",
        "region_code": "YK",
        "region_number": 1,
        "river_mile_range": "12-23",
        "year": 2019,
        "month": 11,
        "day": 9,
        "sample_date": "2019-11-09",
        "environmental_records": 1,
        "mean_temperature_c": 24.82,
        "mean_salinity_psu": 10.66,
        "mean_dissolved_oxygen_mg_l": 8.27,
        "mean_turbidity_ntu": 7.08,
        "mean_chlorophyll_a": 6.63
      }
    },
    {
      "type": "Feature",
      "geometry": {
        "type": "Point",
        "coordinates": [
          -73.94867,
          40.86063
        ]
      },
      "properties": {
        "station_id": "YK09",
        "station_name": "Yonkers Environmental Record 9",
        "river_mile": 18.6,
        "region": "Region 1 - Yonkers",
        "region_name": "Yonkers",
        "region_code": "YK",
        "region_number": 1,
        "river_mile_range": "12-23",
        "year": 2020,
        "month": 12,
        "day": 14,
        "sample_date": "2020-12-14",
        "environmental_records": 1,
        "mean_temperature_c": 25.21,
        "mean_salinity_psu": 10.81,
        "mean_dissolved_oxygen_mg_l": 8.12,
        "mean_turbidity_ntu": 8.02,
        "mean_chlorophyll_a": 5.86
      }
    },
    {
      "type": "Feature",
      "geometry": {
        "type": "Point",
        "coordinates": [
          -73.91583,
          40.87477
        ]
      },
      "properties": {
        "station_id": "YK10",
        "station_name": "Yonkers Environmental Record 10",
        "river_mile": 19.3,
        "region": "Region 1 - Yonkers",
        "region_name": "Yonkers",
        "region_code": "YK",
        "region_number": 1,
        "river_mile_range": "12-23",
        "year": 2021,
        "month": 1,
        "day": 19,
        "sample_date": "2021-01-19",
        "environmental_records": 1,
        "mean_temperature_c": 9.6,
        "mean_salinity_psu": 10.35,
        "mean_dissolved_oxygen_mg_l": 10.73,
        "mean_turbidity_ntu": 8.97,
        "mean_chlorophyll_a": 3.13
      }
    },
    {
      "type": "Feature",
      "geometry": {
        "type": "Point",
        "coordinates": [
          -73.94217,
          40.88423
        ]
      },
      "properties": {
        "station_id": "YK11",
        "station_name": "Yonkers Environmental Record 11",
        "river_mile": 20.1,
        "region": "Region 1 - Yonkers",
        "region_name": "Yonkers",
        "region_code": "YK",
        "region_number": 1,
        "river_mile_range": "12-23",
        "year": 2022,
        "month": 2,
        "day": 24,
        "sample_date": "2022-02-24",
        "environmental_records": 1,
        "mean_temperature_c": 11.39,
        "mean_salinity_psu": 10.49,
        "mean_dissolved_oxygen_mg_l": 10.18,
        "mean_turbidity_ntu": 9.92,
        "mean_chlorophyll_a": 3.76
      }
    },
    {
      "type": "Feature",
      "geometry": {
        "type": "Point",
        "coordinates": [
          -73.89733,
          40.89837
        ]
      },
      "properties": {
        "station_id": "YK12",
        "station_name": "Yonkers Environmental Record 12",
        "river_mile": 20.8,
        "region": "Region 1 - Yonkers",
        "region_name": "Yonkers",
        "region_code": "YK",
        "region_number": 1,
        "river_mile_range": "12-23",
        "year": 2023,
        "month": 3,
        "day": 1,
        "sample_date": "2023-03-01",
        "environmental_records": 1,
        "mean_temperature_c": 13.19,
        "mean_salinity_psu": 10.64,
        "mean_dissolved_oxygen_mg_l": 10.03,
        "mean_turbidity_ntu": 10.87,
        "mean_chlorophyll_a": 4.39
      }
    },
    {
      "type": "Feature",
      "geometry": {
        "type": "Point",
        "coordinates": [
          -73.9245,
          40.9125
        ]
      },
      "properties": {
        "station_id": "YK13",
        "station_name": "Yonkers Environmental Record 13",
        "river_mile": 21.5,
        "region": "Region 1 - Yonkers",
        "region_name": "Yonkers",
        "region_code": "YK",
        "region_number": 1,
        "river_mile_range": "12-23",
        "year": 2024,
        "month": 4,
        "day": 6,
        "sample_date": "2024-04-06",
        "environmental_records": 1,
        "mean_temperature_c": 13.58,
        "mean_salinity_psu": 10.19,
        "mean_dissolved_oxygen_mg_l": 9.88,
        "mean_turbidity_ntu": 6.41,
        "mean_chlorophyll_a": 3.62
      }
    },
    {
      "type": "Feature",
      "geometry": {
        "type": "Point",
        "coordinates": [
          -73.89083,
          40.92847
        ]
      },
      "properties": {
        "station_id": "YK14",
        "station_name": "Yonkers Environmental Record 14",
        "river_mile": 22.3,
        "region": "Region 1 - Yonkers",
        "region_name": "Yonkers",
        "region_code": "YK",
        "region_number": 1,
        "river_mile_range": "12-23",
        "year": 2010,
        "month": 5,
        "day": 11,
        "sample_date": "2010-05-11",
        "environmental_records": 1,
        "mean_temperature_c": 15.37,
        "mean_salinity_psu": 10.33,
        "mean_dissolved_oxygen_mg_l": 9.73,
        "mean_turbidity_ntu": 7.37,
        "mean_chlorophyll_a": 4.25
      }
    },
    {
      "type": "Feature",
      "geometry": {
        "type": "Point",
        "coordinates": [
          -73.9045,
          40.9774
        ]
      },
      "properties": {
        "station_id": "TZ01",
        "station_name": "Tappan Zee Environmental Record 1",
        "river_mile": 25.5,
        "region": "Region 2 - Tappan Zee",
        "region_name": "Tappan Zee",
        "region_code": "TZ",
        "region_number": 2,
        "river_mile_range": "24-33",
        "year": 2014,
        "month": 7,
        "day": 3,
        "sample_date": "2014-07-03",
        "environmental_records": 1,
        "mean_temperature_c": 17.89,
        "mean_salinity_psu": 9.89,
        "mean_dissolved_oxygen_mg_l": 9.03,
        "mean_turbidity_ntu": 6.68,
        "mean_chlorophyll_a": 4.46
      }
    },
    {
      "type": "Feature",
      "geometry": {
        "type": "Point",
        "coordinates": [
          -73.873,
          41.0027
        ]
      },
      "properties": {
        "station_id": "TZ02",
        "station_name": "Tappan Zee Environmental Record 2",
        "river_mile": 27,
        "region": "Region 2 - Tappan Zee",
        "region_name": "Tappan Zee",
        "region_code": "TZ",
        "region_number": 2,
        "river_mile_range": "24-33",
        "year": 2015,
        "month": 8,
        "day": 8,
        "sample_date": "2015-08-08",
        "environmental_records": 1,
        "mean_temperature_c": 19.68,
        "mean_salinity_psu": 9.98,
        "mean_dissolved_oxygen_mg_l": 8.88,
        "mean_turbidity_ntu": 7.68,
        "mean_chlorophyll_a": 5.09
      }
    },
    {
      "type": "Feature",
      "geometry": {
        "type": "Point",
        "coordinates": [
          -73.9015,
          41.028
        ]
      },
      "properties": {
        "station_id": "TZ03",
        "station_name": "Tappan Zee Environmental Record 3",
        "river_mile": 28.5,
        "region": "Region 2 - Tappan Zee",
        "region_name": "Tappan Zee",
        "region_code": "TZ",
        "region_number": 2,
        "river_mile_range": "24-33",
        "year": 2016,
        "month": 9,
        "day": 13,
        "sample_date": "2016-09-13",
        "environmental_records": 1,
        "mean_temperature_c": 21.46,
        "mean_salinity_psu": 10.06,
        "mean_dissolved_oxygen_mg_l": 8.73,
        "mean_turbidity_ntu": 8.68,
        "mean_chlorophyll_a": 5.72
      }
    },
    {
      "type": "Feature",
      "geometry": {
        "type": "Point",
        "coordinates": [
          -73.858,
          41.0533
        ]
      },
      "properties": {
        "station_id": "TZ04",
        "station_name": "Tappan Zee Environmental Record 4",
        "river_mile": 30,
        "region": "Region 2 - Tappan Zee",
        "region_name": "Tappan Zee",
        "region_code": "TZ",
        "region_number": 2,
        "river_mile_range": "24-33",
        "year": 2017,
        "month": 10,
        "day": 18,
        "sample_date": "2017-10-18",
        "environmental_records": 1,
        "mean_temperature_c": 23.24,
        "mean_salinity_psu": 9.55,
        "mean_dissolved_oxygen_mg_l": 8.58,
        "mean_turbidity_ntu": 9.67,
        "mean_chlorophyll_a": 6.35
      }
    },
    {
      "type": "Feature",
      "geometry": {
        "type": "Point",
        "coordinates": [
          -73.8865,
          41.0786
        ]
      },
      "properties": {
        "station_id": "TZ05",
        "station_name": "Tappan Zee Environmental Record 5",
        "river_mile": 31.5,
        "region": "Region 2 - Tappan Zee",
        "region_name": "Tappan Zee",
        "region_code": "TZ",
        "region_number": 2,
        "river_mile_range": "24-33",
        "year": 2018,
        "month": 11,
        "day": 23,
        "sample_date": "2018-11-23",
        "environmental_records": 1,
        "mean_temperature_c": 23.63,
        "mean_salinity_psu": 9.64,
        "mean_dissolved_oxygen_mg_l": 8.43,
        "mean_turbidity_ntu": 10.67,
        "mean_chlorophyll_a": 5.58
      }
    },
    {
      "type": "Feature",
      "geometry": {
        "type": "Point",
        "coordinates": [
          -73.8924,
          41.1234
        ]
      },
      "properties": {
        "station_id": "CH01",
        "station_name": "Croton-Haverstraw Environmental Record 1",
        "river_mile": 34.3,
        "region": "Region 3 - Croton-Haverstraw",
        "region_name": "Croton-Haverstraw",
        "region_code": "CH",
        "region_number": 3,
        "river_mile_range": "34-38",
        "year": 2016,
        "month": 10,
        "day": 4,
        "sample_date": "2016-10-04",
        "environmental_records": 1,
        "mean_temperature_c": 22.15,
        "mean_salinity_psu": 9.23,
        "mean_dissolved_oxygen_mg_l": 8.34,
        "mean_turbidity_ntu": 7.26,
        "mean_chlorophyll_a": 5.3
      }
    },
    {
      "type": "Feature",
      "geometry": {
        "type": "Point",
        "coordinates": [
          -73.8686,
          41.1327
        ]
      },
      "properties": {
        "station_id": "CH02",
        "station_name": "Croton-Haverstraw Environmental Record 2",
        "river_mile": 34.7,
        "region": "Region 3 - Croton-Haverstraw",
        "region_name": "Croton-Haverstraw",
        "region_code": "CH",
        "region_number": 3,
        "river_mile_range": "34-38",
        "year": 2017,
        "month": 11,
        "day": 9,
        "sample_date": "2017-11-09",
        "environmental_records": 1,
        "mean_temperature_c": 23.95,
        "mean_salinity_psu": 9.4,
        "mean_dissolved_oxygen_mg_l": 8.19,
        "mean_turbidity_ntu": 8.18,
        "mean_chlorophyll_a": 5.93
      }
    },
    {
      "type": "Feature",
      "geometry": {
        "type": "Point",
        "coordinates": [
          -73.904,
          41.14
        ]
      },
      "properties": {
        "station_id": "CH03",
        "station_name": "Croton-Haverstraw Environmental Record 3",
        "river_mile": 35,
        "region": "Region 3 - Croton-Haverstraw",
        "region_name": "Croton-Haverstraw",
        "region_code": "CH",
        "region_number": 3,
        "river_mile_range": "34-38",
        "year": 2018,
        "month": 12,
        "day": 14,
        "sample_date": "2018-12-14",
        "environmental_records": 1,
        "mean_temperature_c": 25.75,
        "mean_salinity_psu": 9.57,
        "mean_dissolved_oxygen_mg_l": 8.04,
        "mean_turbidity_ntu": 9.1,
        "mean_chlorophyll_a": 6.56
      }
    },
    {
      "type": "Feature",
      "geometry": {
        "type": "Point",
        "coordinates": [
          -73.8674,
          41.1473
        ]
      },
      "properties": {
        "station_id": "CH04",
        "station_name": "Croton-Haverstraw Environmental Record 4",
        "river_mile": 35.3,
        "region": "Region 3 - Croton-Haverstraw",
        "region_name": "Croton-Haverstraw",
        "region_code": "CH",
        "region_number": 3,
        "river_mile_range": "34-38",
        "year": 2019,
        "month": 1,
        "day": 19,
        "sample_date": "2019-01-19",
        "environmental_records": 1,
        "mean_temperature_c": 10.14,
        "mean_salinity_psu": 9.15,
        "mean_dissolved_oxygen_mg_l": 10.65,
        "mean_turbidity_ntu": 10.02,
        "mean_chlorophyll_a": 3.83
      }
    },
    {
      "type": "Feature",
      "geometry": {
        "type": "Point",
        "coordinates": [
          -73.9036,
          41.1566
        ]
      },
      "properties": {
        "station_id": "CH05",
        "station_name": "Croton-Haverstraw Environmental Record 5",
        "river_mile": 35.7,
        "region": "Region 3 - Croton-Haverstraw",
        "region_name": "Croton-Haverstraw",
        "region_code": "CH",
        "region_number": 3,
        "river_mile_range": "34-38",
        "year": 2020,
        "month": 2,
        "day": 24,
        "sample_date": "2020-02-24",
        "environmental_records": 1,
        "mean_temperature_c": 10.54,
        "mean_salinity_psu": 9.32,
        "mean_dissolved_oxygen_mg_l": 10.5,
        "mean_turbidity_ntu": 10.95,
        "mean_chlorophyll_a": 3.06
      }
    },
    {
      "type": "Feature",
      "geometry": {
        "type": "Point",
        "coordinates": [
          -73.879,
          41.1574
        ]
      },
      "properties": {
        "station_id": "CH06",
        "station_name": "Croton-Haverstraw Environmental Record 6",
        "river_mile": 36,
        "region": "Region 3 - Croton-Haverstraw",
        "region_name": "Croton-Haverstraw",
        "region_code": "CH",
        "region_number": 3,
        "river_mile_range": "34-38",
        "year": 2021,
        "month": 3,
        "day": 1,
        "sample_date": "2021-03-01",
        "environmental_records": 1,
        "mean_temperature_c": 12.34,
        "mean_salinity_psu": 9.5,
        "mean_dissolved_oxygen_mg_l": 9.95,
        "mean_turbidity_ntu": 11.87,
        "mean_chlorophyll_a": 3.69
      }
    },
    {
      "type": "Feature",
      "geometry": {
        "type": "Point",
        "coordinates": [
          -73.9144,
          41.1647
        ]
      },
      "properties": {
        "station_id": "CH07",
        "station_name": "Croton-Haverstraw Environmental Record 7",
        "river_mile": 36.3,
        "region": "Region 3 - Croton-Haverstraw",
        "region_name": "Croton-Haverstraw",
        "region_code": "CH",
        "region_number": 3,
        "river_mile_range": "34-38",
        "year": 2022,
        "month": 4,
        "day": 6,
        "sample_date": "2022-04-06",
        "environmental_records": 1,
        "mean_temperature_c": 14.13,
        "mean_salinity_psu": 9.08,
        "mean_dissolved_oxygen_mg_l": 9.8,
        "mean_turbidity_ntu": 7.39,
        "mean_chlorophyll_a": 4.32
      }
    },
    {
      "type": "Feature",
      "geometry": {
        "type": "Point",
        "coordinates": [
          -73.8786,
          41.174
        ]
      },
      "properties": {
        "station_id": "CH08",
        "station_name": "Croton-Haverstraw Environmental Record 8",
        "river_mile": 36.7,
        "region": "Region 3 - Croton-Haverstraw",
        "region_name": "Croton-Haverstraw",
        "region_code": "CH",
        "region_number": 3,
        "river_mile_range": "34-38",
        "year": 2023,
        "month": 5,
        "day": 11,
        "sample_date": "2023-05-11",
        "environmental_records": 1,
        "mean_temperature_c": 15.93,
        "mean_salinity_psu": 9.25,
        "mean_dissolved_oxygen_mg_l": 9.65,
        "mean_turbidity_ntu": 8.31,
        "mean_chlorophyll_a": 4.95
      }
    },
    {
      "type": "Feature",
      "geometry": {
        "type": "Point",
        "coordinates": [
          -73.914,
          41.1813
        ]
      },
      "properties": {
        "station_id": "CH09",
        "station_name": "Croton-Haverstraw Environmental Record 9",
        "river_mile": 37,
        "region": "Region 3 - Croton-Haverstraw",
        "region_name": "Croton-Haverstraw",
        "region_code": "CH",
        "region_number": 3,
        "river_mile_range": "34-38",
        "year": 2024,
        "month": 6,
        "day": 16,
        "sample_date": "2024-06-16",
        "environmental_records": 1,
        "mean_temperature_c": 16.33,
        "mean_salinity_psu": 9.42,
        "mean_dissolved_oxygen_mg_l": 9.5,
        "mean_turbidity_ntu": 9.23,
        "mean_chlorophyll_a": 4.18
      }
    },
    {
      "type": "Feature",
      "geometry": {
        "type": "Point",
        "coordinates": [
          -73.8894,
          41.1886
        ]
      },
      "properties": {
        "station_id": "CH10",
        "station_name": "Croton-Haverstraw Environmental Record 10",
        "river_mile": 37.3,
        "region": "Region 3 - Croton-Haverstraw",
        "region_name": "Croton-Haverstraw",
        "region_code": "CH",
        "region_number": 3,
        "river_mile_range": "34-38",
        "year": 2010,
        "month": 7,
        "day": 21,
        "sample_date": "2010-07-21",
        "environmental_records": 1,
        "mean_temperature_c": 18.12,
        "mean_salinity_psu": 9,
        "mean_dissolved_oxygen_mg_l": 9.35,
        "mean_turbidity_ntu": 10.15,
        "mean_chlorophyll_a": 4.81
      }
    },
    {
      "type": "Feature",
      "geometry": {
        "type": "Point",
        "coordinates": [
          -73.9256,
          41.1914
        ]
      },
      "properties": {
        "station_id": "CH11",
        "station_name": "Croton-Haverstraw Environmental Record 11",
        "river_mile": 37.7,
        "region": "Region 3 - Croton-Haverstraw",
        "region_name": "Croton-Haverstraw",
        "region_code": "CH",
        "region_number": 3,
        "river_mile_range": "34-38",
        "year": 2011,
        "month": 8,
        "day": 26,
        "sample_date": "2011-08-26",
        "environmental_records": 1,
        "mean_temperature_c": 19.92,
        "mean_salinity_psu": 9.17,
        "mean_dissolved_oxygen_mg_l": 8.8,
        "mean_turbidity_ntu": 11.08,
        "mean_chlorophyll_a": 5.44
      }
    },
    {
      "type": "Feature",
      "geometry": {
        "type": "Point",
        "coordinates": [
          -73.9385,
          41.24278
        ]
      },
      "properties": {
        "station_id": "IP01",
        "station_name": "Indian Point Environmental Record 1",
        "river_mile": 41.3,
        "region": "Region 4 - Indian Point",
        "region_name": "Indian Point",
        "region_code": "IP",
        "region_number": 4,
        "river_mile_range": "39-46",
        "year": 2018,
        "month": 1,
        "day": 5,
        "sample_date": "2018-01-05",
        "environmental_records": 1,
        "mean_temperature_c": 9.03,
        "mean_salinity_psu": 8.7,
        "mean_dissolved_oxygen_mg_l": 10.41,
        "mean_turbidity_ntu": 7.72,
        "mean_chlorophyll_a": 2.78
      }
    },
    {
      "type": "Feature",
      "geometry": {
        "type": "Point",
        "coordinates": [
          -73.9235,
          41.27708
        ]
      },
      "properties": {
        "station_id": "IP02",
        "station_name": "Indian Point Environmental Record 2",
        "river_mile": 43.7,
        "region": "Region 4 - Indian Point",
        "region_name": "Indian Point",
        "region_code": "IP",
        "region_number": 4,
        "river_mile_range": "39-46",
        "year": 2019,
        "month": 2,
        "day": 10,
        "sample_date": "2019-02-10",
        "environmental_records": 1,
        "mean_temperature_c": 10.81,
        "mean_salinity_psu": 8.72,
        "mean_dissolved_oxygen_mg_l": 10.26,
        "mean_turbidity_ntu": 8.78,
        "mean_chlorophyll_a": 3.41
      }
    },
    {
      "type": "Feature",
      "geometry": {
        "type": "Point",
        "coordinates": [
          -73.964,
          41.3274
        ]
      },
      "properties": {
        "station_id": "WP01",
        "station_name": "West Point Environmental Record 1",
        "river_mile": 47.8,
        "region": "Region 5 - West Point",
        "region_name": "West Point",
        "region_code": "WP",
        "region_number": 5,
        "river_mile_range": "47-55",
        "year": 2020,
        "month": 4,
        "day": 6,
        "sample_date": "2020-04-06",
        "environmental_records": 1,
        "mean_temperature_c": 13.32,
        "mean_salinity_psu": 8.22,
        "mean_dissolved_oxygen_mg_l": 9.72,
        "mean_turbidity_ntu": 8.14,
        "mean_chlorophyll_a": 3.62
      }
    },
    {
      "type": "Feature",
      "geometry": {
        "type": "Point",
        "coordinates": [
          -73.93789,
          41.33759
        ]
      },
      "properties": {
        "station_id": "WP02",
        "station_name": "West Point Environmental Record 2",
        "river_mile": 48.6,
        "region": "Region 5 - West Point",
        "region_name": "West Point",
        "region_code": "WP",
        "region_number": 5,
        "river_mile_range": "47-55",
        "year": 2021,
        "month": 5,
        "day": 11,
        "sample_date": "2021-05-11",
        "environmental_records": 1,
        "mean_temperature_c": 15.11,
        "mean_salinity_psu": 8.36,
        "mean_dissolved_oxygen_mg_l": 9.57,
        "mean_turbidity_ntu": 9.1,
        "mean_chlorophyll_a": 4.25
      }
    },
    {
      "type": "Feature",
      "geometry": {
        "type": "Point",
        "coordinates": [
          -73.97178,
          41.34778
        ]
      },
      "properties": {
        "station_id": "WP03",
        "station_name": "West Point Environmental Record 3",
        "river_mile": 49.4,
        "region": "Region 5 - West Point",
        "region_name": "West Point",
        "region_code": "WP",
        "region_number": 5,
        "river_mile_range": "47-55",
        "year": 2022,
        "month": 6,
        "day": 16,
        "sample_date": "2022-06-16",
        "environmental_records": 1,
        "mean_temperature_c": 16.9,
        "mean_salinity_psu": 8.49,
        "mean_dissolved_oxygen_mg_l": 9.42,
        "mean_turbidity_ntu": 10.05,
        "mean_chlorophyll_a": 4.88
      }
    },
    {
      "type": "Feature",
      "geometry": {
        "type": "Point",
        "coordinates": [
          -73.93367,
          41.35797
        ]
      },
      "properties": {
        "station_id": "WP04",
        "station_name": "West Point Environmental Record 4",
        "river_mile": 50.2,
        "region": "Region 5 - West Point",
        "region_name": "West Point",
        "region_code": "WP",
        "region_number": 5,
        "river_mile_range": "47-55",
        "year": 2023,
        "month": 7,
        "day": 21,
        "sample_date": "2023-07-21",
        "environmental_records": 1,
        "mean_temperature_c": 18.69,
        "mean_salinity_psu": 8.04,
        "mean_dissolved_oxygen_mg_l": 9.27,
        "mean_turbidity_ntu": 11,
        "mean_chlorophyll_a": 5.51
      }
    },
    {
      "type": "Feature",
      "geometry": {
        "type": "Point",
        "coordinates": [
          -73.96756,
          41.36816
        ]
      },
      "properties": {
        "station_id": "WP05",
        "station_name": "West Point Environmental Record 5",
        "river_mile": 51,
        "region": "Region 5 - West Point",
        "region_name": "West Point",
        "region_code": "WP",
        "region_number": 5,
        "river_mile_range": "47-55",
        "year": 2024,
        "month": 8,
        "day": 26,
        "sample_date": "2024-08-26",
        "environmental_records": 1,
        "mean_temperature_c": 19.09,
        "mean_salinity_psu": 8.18,
        "mean_dissolved_oxygen_mg_l": 9.12,
        "mean_turbidity_ntu": 11.96,
        "mean_chlorophyll_a": 4.74
      }
    },
    {
      "type": "Feature",
      "geometry": {
        "type": "Point",
        "coordinates": [
          -73.94144,
          41.37184
        ]
      },
      "properties": {
        "station_id": "WP06",
        "station_name": "West Point Environmental Record 6",
        "river_mile": 51.8,
        "region": "Region 5 - West Point",
        "region_name": "West Point",
        "region_code": "WP",
        "region_number": 5,
        "river_mile_range": "47-55",
        "year": 2010,
        "month": 9,
        "day": 3,
        "sample_date": "2010-09-03",
        "environmental_records": 1,
        "mean_temperature_c": 20.88,
        "mean_salinity_psu": 8.32,
        "mean_dissolved_oxygen_mg_l": 8.57,
        "mean_turbidity_ntu": 12.91,
        "mean_chlorophyll_a": 5.37
      }
    },
    {
      "type": "Feature",
      "geometry": {
        "type": "Point",
        "coordinates": [
          -73.97533,
          41.38203
        ]
      },
      "properties": {
        "station_id": "WP07",
        "station_name": "West Point Environmental Record 7",
        "river_mile": 52.6,
        "region": "Region 5 - West Point",
        "region_name": "West Point",
        "region_code": "WP",
        "region_number": 5,
        "river_mile_range": "47-55",
        "year": 2011,
        "month": 10,
        "day": 8,
        "sample_date": "2011-10-08",
        "environmental_records": 1,
        "mean_temperature_c": 22.67,
        "mean_salinity_psu": 7.86,
        "mean_dissolved_oxygen_mg_l": 8.42,
        "mean_turbidity_ntu": 8.46,
        "mean_chlorophyll_a": 6
      }
    },
    {
      "type": "Feature",
      "geometry": {
        "type": "Point",
        "coordinates": [
          -73.93722,
          41.39222
        ]
      },
      "properties": {
        "station_id": "WP08",
        "station_name": "West Point Environmental Record 8",
        "river_mile": 53.4,
        "region": "Region 5 - West Point",
        "region_name": "West Point",
        "region_code": "WP",
        "region_number": 5,
        "river_mile_range": "47-55",
        "year": 2012,
        "month": 11,
        "day": 13,
        "sample_date": "2012-11-13",
        "environmental_records": 1,
        "mean_temperature_c": 24.46,
        "mean_salinity_psu": 8,
        "mean_dissolved_oxygen_mg_l": 8.27,
        "mean_turbidity_ntu": 9.41,
        "mean_chlorophyll_a": 6.63
      }
    },
    {
      "type": "Feature",
      "geometry": {
        "type": "Point",
        "coordinates": [
          -73.97111,
          41.40241
        ]
      },
      "properties": {
        "station_id": "WP09",
        "station_name": "West Point Environmental Record 9",
        "river_mile": 54.2,
        "region": "Region 5 - West Point",
        "region_name": "West Point",
        "region_code": "WP",
        "region_number": 5,
        "river_mile_range": "47-55",
        "year": 2013,
        "month": 12,
        "day": 18,
        "sample_date": "2013-12-18",
        "environmental_records": 1,
        "mean_temperature_c": 24.85,
        "mean_salinity_psu": 8.14,
        "mean_dissolved_oxygen_mg_l": 8.12,
        "mean_turbidity_ntu": 10.37,
        "mean_chlorophyll_a": 5.86
      }
    },
    {
      "type": "Feature",
      "geometry": {
        "type": "Point",
        "coordinates": [
          -73.98617,
          41.4244
        ]
      },
      "properties": {
        "station_id": "CW01",
        "station_name": "Cornwall Environmental Record 1",
        "river_mile": 56.7,
        "region": "Region 6 - Cornwall",
        "region_name": "Cornwall",
        "region_code": "CW",
        "region_number": 6,
        "river_mile_range": "56-61",
        "year": 2022,
        "month": 7,
        "day": 7,
        "sample_date": "2022-07-07",
        "environmental_records": 1,
        "mean_temperature_c": 17.58,
        "mean_salinity_psu": 7.55,
        "mean_dissolved_oxygen_mg_l": 9.03,
        "mean_turbidity_ntu": 8.73,
        "mean_chlorophyll_a": 4.46
      }
    },
    {
      "type": "Feature",
      "geometry": {
        "type": "Point",
        "coordinates": [
          -73.965,
          41.4327
        ]
      },
      "properties": {
        "station_id": "CW02",
        "station_name": "Cornwall Environmental Record 2",
        "river_mile": 57.4,
        "region": "Region 6 - Cornwall",
        "region_name": "Cornwall",
        "region_code": "CW",
        "region_number": 6,
        "river_mile_range": "56-61",
        "year": 2023,
        "month": 8,
        "day": 12,
        "sample_date": "2023-08-12",
        "environmental_records": 1,
        "mean_temperature_c": 19.37,
        "mean_salinity_psu": 7.7,
        "mean_dissolved_oxygen_mg_l": 8.88,
        "mean_turbidity_ntu": 9.68,
        "mean_chlorophyll_a": 5.09
      }
    },
    {
      "type": "Feature",
      "geometry": {
        "type": "Point",
        "coordinates": [
          -74.00383,
          41.441
        ]
      },
      "properties": {
        "station_id": "CW03",
        "station_name": "Cornwall Environmental Record 3",
        "river_mile": 58.1,
        "region": "Region 6 - Cornwall",
        "region_name": "Cornwall",
        "region_code": "CW",
        "region_number": 6,
        "river_mile_range": "56-61",
        "year": 2024,
        "month": 9,
        "day": 17,
        "sample_date": "2024-09-17",
        "environmental_records": 1,
        "mean_temperature_c": 21.16,
        "mean_salinity_psu": 7.84,
        "mean_dissolved_oxygen_mg_l": 8.73,
        "mean_turbidity_ntu": 10.62,
        "mean_chlorophyll_a": 5.72
      }
    },
    {
      "type": "Feature",
      "geometry": {
        "type": "Point",
        "coordinates": [
          -73.9715,
          41.4503
        ]
      },
      "properties": {
        "station_id": "CW04",
        "station_name": "Cornwall Environmental Record 4",
        "river_mile": 58.9,
        "region": "Region 6 - Cornwall",
        "region_name": "Cornwall",
        "region_code": "CW",
        "region_number": 6,
        "river_mile_range": "56-61",
        "year": 2010,
        "month": 10,
        "day": 22,
        "sample_date": "2010-10-22",
        "environmental_records": 1,
        "mean_temperature_c": 22.96,
        "mean_salinity_psu": 7.38,
        "mean_dissolved_oxygen_mg_l": 8.58,
        "mean_turbidity_ntu": 11.58,
        "mean_chlorophyll_a": 6.35
      }
    },
    {
      "type": "Feature",
      "geometry": {
        "type": "Point",
        "coordinates": [
          -74.01033,
          41.4586
        ]
      },
      "properties": {
        "station_id": "CW05",
        "station_name": "Cornwall Environmental Record 5",
        "river_mile": 59.6,
        "region": "Region 6 - Cornwall",
        "region_name": "Cornwall",
        "region_code": "CW",
        "region_number": 6,
        "river_mile_range": "56-61",
        "year": 2011,
        "month": 11,
        "day": 27,
        "sample_date": "2011-11-27",
        "environmental_records": 1,
        "mean_temperature_c": 23.35,
        "mean_salinity_psu": 7.53,
        "mean_dissolved_oxygen_mg_l": 8.43,
        "mean_turbidity_ntu": 12.52,
        "mean_chlorophyll_a": 5.58
      }
    },
    {
      "type": "Feature",
      "geometry": {
        "type": "Point",
        "coordinates": [
          -73.98917,
          41.4604
        ]
      },
      "properties": {
        "station_id": "CW06",
        "station_name": "Cornwall Environmental Record 6",
        "river_mile": 60.3,
        "region": "Region 6 - Cornwall",
        "region_name": "Cornwall",
        "region_code": "CW",
        "region_number": 6,
        "river_mile_range": "56-61",
        "year": 2012,
        "month": 12,
        "day": 4,
        "sample_date": "2012-12-04",
        "environmental_records": 1,
        "mean_temperature_c": 25.14,
        "mean_salinity_psu": 7.68,
        "mean_dissolved_oxygen_mg_l": 7.88,
        "mean_turbidity_ntu": 13.47,
        "mean_chlorophyll_a": 6.21
      }
    },
    {
      "type": "Feature",
      "geometry": {
        "type": "Point",
        "coordinates": [
          -74.0136,
          41.495
        ]
      },
      "properties": {
        "station_id": "PK01",
        "station_name": "Poughkeepsie Environmental Record 1",
        "river_mile": 62.8,
        "region": "Region 7 - Poughkeepsie",
        "region_name": "Poughkeepsie",
        "region_code": "PK",
        "region_number": 7,
        "river_mile_range": "62-76",
        "year": 2024,
        "month": 10,
        "day": 8,
        "sample_date": "2024-10-08",
        "environmental_records": 1,
        "mean_temperature_c": 21.87,
        "mean_salinity_psu": 7.09,
        "mean_dissolved_oxygen_mg_l": 8.34,
        "mean_turbidity_ntu": 9.13,
        "mean_chlorophyll_a": 5.3
      }
    },
    {
      "type": "Feature",
      "geometry": {
        "type": "Point",
        "coordinates": [
          -73.98287,
          41.50857
        ]
      },
      "properties": {
        "station_id": "PK02",
        "station_name": "Poughkeepsie Environmental Record 2",
        "river_mile": 63.6,
        "region": "Region 7 - Poughkeepsie",
        "region_name": "Poughkeepsie",
        "region_code": "PK",
        "region_number": 7,
        "river_mile_range": "62-76",
        "year": 2010,
        "month": 11,
        "day": 13,
        "sample_date": "2010-11-13",
        "environmental_records": 1,
        "mean_temperature_c": 23.66,
        "mean_salinity_psu": 7.23,
        "mean_dissolved_oxygen_mg_l": 8.19,
        "mean_turbidity_ntu": 10.08,
        "mean_chlorophyll_a": 5.93
      }
    },
    {
      "type": "Feature",
      "geometry": {
        "type": "Point",
        "coordinates": [
          -74.0126,
          41.5206
        ]
      },
      "properties": {
        "station_id": "PK03",
        "station_name": "Poughkeepsie Environmental Record 3",
        "river_mile": 64.3,
        "region": "Region 7 - Poughkeepsie",
        "region_name": "Poughkeepsie",
        "region_code": "PK",
        "region_number": 7,
        "river_mile_range": "62-76",
        "year": 2011,
        "month": 12,
        "day": 18,
        "sample_date": "2011-12-18",
        "environmental_records": 1,
        "mean_temperature_c": 25.45,
        "mean_salinity_psu": 7.38,
        "mean_dissolved_oxygen_mg_l": 8.04,
        "mean_turbidity_ntu": 11.03,
        "mean_chlorophyll_a": 6.56
      }
    },
    {
      "type": "Feature",
      "geometry": {
        "type": "Point",
        "coordinates": [
          -73.96987,
          41.53417
        ]
      },
      "properties": {
        "station_id": "PK04",
        "station_name": "Poughkeepsie Environmental Record 4",
        "river_mile": 65.1,
        "region": "Region 7 - Poughkeepsie",
        "region_name": "Poughkeepsie",
        "region_code": "PK",
        "region_number": 7,
        "river_mile_range": "62-76",
        "year": 2012,
        "month": 1,
        "day": 23,
        "sample_date": "2012-01-23",
        "environmental_records": 1,
        "mean_temperature_c": 9.84,
        "mean_salinity_psu": 6.92,
        "mean_dissolved_oxygen_mg_l": 10.65,
        "mean_turbidity_ntu": 11.98,
        "mean_chlorophyll_a": 3.83
      }
    },
    {
      "type": "Feature",
      "geometry": {
        "type": "Point",
        "coordinates": [
          -73.99913,
          41.54773
        ]
      },
      "properties": {
        "station_id": "PK05",
        "station_name": "Poughkeepsie Environmental Record 5",
        "river_mile": 65.9,
        "region": "Region 7 - Poughkeepsie",
        "region_name": "Poughkeepsie",
        "region_code": "PK",
        "region_number": 7,
        "river_mile_range": "62-76",
        "year": 2013,
        "month": 2,
        "day": 28,
        "sample_date": "2013-02-28",
        "environmental_records": 1,
        "mean_temperature_c": 10.24,
        "mean_salinity_psu": 7.06,
        "mean_dissolved_oxygen_mg_l": 10.5,
        "mean_turbidity_ntu": 12.94,
        "mean_chlorophyll_a": 3.06
      }
    },
    {
      "type": "Feature",
      "geometry": {
        "type": "Point",
        "coordinates": [
          -73.9684,
          41.5548
        ]
      },
      "properties": {
        "station_id": "PK06",
        "station_name": "Poughkeepsie Environmental Record 6",
        "river_mile": 66.7,
        "region": "Region 7 - Poughkeepsie",
        "region_name": "Poughkeepsie",
        "region_code": "PK",
        "region_number": 7,
        "river_mile_range": "62-76",
        "year": 2014,
        "month": 3,
        "day": 5,
        "sample_date": "2014-03-05",
        "environmental_records": 1,
        "mean_temperature_c": 12.03,
        "mean_salinity_psu": 7.2,
        "mean_dissolved_oxygen_mg_l": 9.95,
        "mean_turbidity_ntu": 13.89,
        "mean_chlorophyll_a": 3.69
      }
    },
    {
      "type": "Feature",
      "geometry": {
        "type": "Point",
        "coordinates": [
          -73.99813,
          41.56683
        ]
      },
      "properties": {
        "station_id": "PK07",
        "station_name": "Poughkeepsie Environmental Record 7",
        "river_mile": 67.4,
        "region": "Region 7 - Poughkeepsie",
        "region_name": "Poughkeepsie",
        "region_code": "PK",
        "region_number": 7,
        "river_mile_range": "62-76",
        "year": 2015,
        "month": 4,
        "day": 10,
        "sample_date": "2015-04-10",
        "environmental_records": 1,
        "mean_temperature_c": 13.82,
        "mean_salinity_psu": 6.74,
        "mean_dissolved_oxygen_mg_l": 9.8,
        "mean_turbidity_ntu": 9.43,
        "mean_chlorophyll_a": 4.32
      }
    },
    {
      "type": "Feature",
      "geometry": {
        "type": "Point",
        "coordinates": [
          -73.9554,
          41.5804
        ]
      },
      "properties": {
        "station_id": "PK08",
        "station_name": "Poughkeepsie Environmental Record 8",
        "river_mile": 68.2,
        "region": "Region 7 - Poughkeepsie",
        "region_name": "Poughkeepsie",
        "region_code": "PK",
        "region_number": 7,
        "river_mile_range": "62-76",
        "year": 2016,
        "month": 5,
        "day": 15,
        "sample_date": "2016-05-15",
        "environmental_records": 1,
        "mean_temperature_c": 15.61,
        "mean_salinity_psu": 6.89,
        "mean_dissolved_oxygen_mg_l": 9.65,
        "mean_turbidity_ntu": 10.39,
        "mean_chlorophyll_a": 4.95
      }
    },
    {
      "type": "Feature",
      "geometry": {
        "type": "Point",
        "coordinates": [
          -73.98467,
          41.59397
        ]
      },
      "properties": {
        "station_id": "PK09",
        "station_name": "Poughkeepsie Environmental Record 9",
        "river_mile": 69,
        "region": "Region 7 - Poughkeepsie",
        "region_name": "Poughkeepsie",
        "region_code": "PK",
        "region_number": 7,
        "river_mile_range": "62-76",
        "year": 2017,
        "month": 6,
        "day": 20,
        "sample_date": "2017-06-20",
        "environmental_records": 1,
        "mean_temperature_c": 16.01,
        "mean_salinity_psu": 7.03,
        "mean_dissolved_oxygen_mg_l": 9.5,
        "mean_turbidity_ntu": 11.34,
        "mean_chlorophyll_a": 4.18
      }
    },
    {
      "type": "Feature",
      "geometry": {
        "type": "Point",
        "coordinates": [
          -73.95393,
          41.60753
        ]
      },
      "properties": {
        "station_id": "PK10",
        "station_name": "Poughkeepsie Environmental Record 10",
        "river_mile": 69.8,
        "region": "Region 7 - Poughkeepsie",
        "region_name": "Poughkeepsie",
        "region_code": "PK",
        "region_number": 7,
        "river_mile_range": "62-76",
        "year": 2018,
        "month": 7,
        "day": 25,
        "sample_date": "2018-07-25",
        "environmental_records": 1,
        "mean_temperature_c": 17.8,
        "mean_salinity_psu": 6.57,
        "mean_dissolved_oxygen_mg_l": 9.35,
        "mean_turbidity_ntu": 12.29,
        "mean_chlorophyll_a": 4.81
      }
    },
    {
      "type": "Feature",
      "geometry": {
        "type": "Point",
        "coordinates": [
          -73.9832,
          41.6146
        ]
      },
      "properties": {
        "station_id": "PK11",
        "station_name": "Poughkeepsie Environmental Record 11",
        "river_mile": 70.6,
        "region": "Region 7 - Poughkeepsie",
        "region_name": "Poughkeepsie",
        "region_code": "PK",
        "region_number": 7,
        "river_mile_range": "62-76",
        "year": 2019,
        "month": 8,
        "day": 2,
        "sample_date": "2019-08-02",
        "environmental_records": 1,
        "mean_temperature_c": 19.59,
        "mean_salinity_psu": 6.71,
        "mean_dissolved_oxygen_mg_l": 8.8,
        "mean_turbidity_ntu": 13.24,
        "mean_chlorophyll_a": 5.44
      }
    },
    {
      "type": "Feature",
      "geometry": {
        "type": "Point",
        "coordinates": [
          -73.94093,
          41.62663
        ]
      },
      "properties": {
        "station_id": "PK12",
        "station_name": "Poughkeepsie Environmental Record 12",
        "river_mile": 71.3,
        "region": "Region 7 - Poughkeepsie",
        "region_name": "Poughkeepsie",
        "region_code": "PK",
        "region_number": 7,
        "river_mile_range": "62-76",
        "year": 2020,
        "month": 9,
        "day": 7,
        "sample_date": "2020-09-07",
        "environmental_records": 1,
        "mean_temperature_c": 21.38,
        "mean_salinity_psu": 6.85,
        "mean_dissolved_oxygen_mg_l": 8.65,
        "mean_turbidity_ntu": 14.19,
        "mean_chlorophyll_a": 6.07
      }
    },
    {
      "type": "Feature",
      "geometry": {
        "type": "Point",
        "coordinates": [
          -73.9702,
          41.6402
        ]
      },
      "properties": {
        "station_id": "PK13",
        "station_name": "Poughkeepsie Environmental Record 13",
        "river_mile": 72.1,
        "region": "Region 7 - Poughkeepsie",
        "region_name": "Poughkeepsie",
        "region_code": "PK",
        "region_number": 7,
        "river_mile_range": "62-76",
        "year": 2021,
        "month": 10,
        "day": 12,
        "sample_date": "2021-10-12",
        "environmental_records": 1,
        "mean_temperature_c": 21.77,
        "mean_salinity_psu": 6.39,
        "mean_dissolved_oxygen_mg_l": 8.5,
        "mean_turbidity_ntu": 9.74,
        "mean_chlorophyll_a": 5.3
      }
    },
    {
      "type": "Feature",
      "geometry": {
        "type": "Point",
        "coordinates": [
          -73.93947,
          41.65377
        ]
      },
      "properties": {
        "station_id": "PK14",
        "station_name": "Poughkeepsie Environmental Record 14",
        "river_mile": 72.9,
        "region": "Region 7 - Poughkeepsie",
        "region_name": "Poughkeepsie",
        "region_code": "PK",
        "region_number": 7,
        "river_mile_range": "62-76",
        "year": 2022,
        "month": 11,
        "day": 17,
        "sample_date": "2022-11-17",
        "environmental_records": 1,
        "mean_temperature_c": 23.57,
        "mean_salinity_psu": 6.53,
        "mean_dissolved_oxygen_mg_l": 8.35,
        "mean_turbidity_ntu": 10.7,
        "mean_chlorophyll_a": 5.93
      }
    },
    {
      "type": "Feature",
      "geometry": {
        "type": "Point",
        "coordinates": [
          -73.96873,
          41.66733
        ]
      },
      "properties": {
        "station_id": "PK15",
        "station_name": "Poughkeepsie Environmental Record 15",
        "river_mile": 73.7,
        "region": "Region 7 - Poughkeepsie",
        "region_name": "Poughkeepsie",
        "region_code": "PK",
        "region_number": 7,
        "river_mile_range": "62-76",
        "year": 2023,
        "month": 12,
        "day": 22,
        "sample_date": "2023-12-22",
        "environmental_records": 1,
        "mean_temperature_c": 25.36,
        "mean_salinity_psu": 6.67,
        "mean_dissolved_oxygen_mg_l": 8.2,
        "mean_turbidity_ntu": 11.65,
        "mean_chlorophyll_a": 6.56
      }
    },
    {
      "type": "Feature",
      "geometry": {
        "type": "Point",
        "coordinates": [
          -73.92647,
          41.67287
        ]
      },
      "properties": {
        "station_id": "PK16",
        "station_name": "Poughkeepsie Environmental Record 16",
        "river_mile": 74.4,
        "region": "Region 7 - Poughkeepsie",
        "region_name": "Poughkeepsie",
        "region_code": "PK",
        "region_number": 7,
        "river_mile_range": "62-76",
        "year": 2024,
        "month": 1,
        "day": 27,
        "sample_date": "2024-01-27",
        "environmental_records": 1,
        "mean_temperature_c": 9.75,
        "mean_salinity_psu": 6.22,
        "mean_dissolved_oxygen_mg_l": 10.41,
        "mean_turbidity_ntu": 12.59,
        "mean_chlorophyll_a": 3.83
      }
    },
    {
      "type": "Feature",
      "geometry": {
        "type": "Point",
        "coordinates": [
          -73.95573,
          41.68643
        ]
      },
      "properties": {
        "station_id": "PK17",
        "station_name": "Poughkeepsie Environmental Record 17",
        "river_mile": 75.2,
        "region": "Region 7 - Poughkeepsie",
        "region_name": "Poughkeepsie",
        "region_code": "PK",
        "region_number": 7,
        "river_mile_range": "62-76",
        "year": 2010,
        "month": 2,
        "day": 4,
        "sample_date": "2010-02-04",
        "environmental_records": 1,
        "mean_temperature_c": 10.14,
        "mean_salinity_psu": 6.36,
        "mean_dissolved_oxygen_mg_l": 10.26,
        "mean_turbidity_ntu": 13.55,
        "mean_chlorophyll_a": 3.06
      }
    },
    {
      "type": "Feature",
      "geometry": {
        "type": "Point",
        "coordinates": [
          -73.95489,
          41.73784
        ]
      },
      "properties": {
        "station_id": "HP01",
        "station_name": "Hyde Park Environmental Record 1",
        "river_mile": 78.6,
        "region": "Region 8 - Hyde Park",
        "region_name": "Hyde Park",
        "region_code": "HP",
        "region_number": 8,
        "river_mile_range": "77-85",
        "year": 2011,
        "month": 1,
        "day": 9,
        "sample_date": "2011-01-09",
        "environmental_records": 1,
        "mean_temperature_c": 8.66,
        "mean_salinity_psu": 5.91,
        "mean_dissolved_oxygen_mg_l": 10.41,
        "mean_turbidity_ntu": 10.17,
        "mean_chlorophyll_a": 2.78
      }
    },
    {
      "type": "Feature",
      "geometry": {
        "type": "Point",
        "coordinates": [
          -73.92967,
          41.76403
        ]
      },
      "properties": {
        "station_id": "HP02",
        "station_name": "Hyde Park Environmental Record 2",
        "river_mile": 80.2,
        "region": "Region 8 - Hyde Park",
        "region_name": "Hyde Park",
        "region_code": "HP",
        "region_number": 8,
        "river_mile_range": "77-85",
        "year": 2012,
        "month": 2,
        "day": 14,
        "sample_date": "2012-02-14",
        "environmental_records": 1,
        "mean_temperature_c": 10.44,
        "mean_salinity_psu": 5.99,
        "mean_dissolved_oxygen_mg_l": 10.26,
        "mean_turbidity_ntu": 11.18,
        "mean_chlorophyll_a": 3.41
      }
    },
    {
      "type": "Feature",
      "geometry": {
        "type": "Point",
        "coordinates": [
          -73.96444,
          41.79022
        ]
      },
      "properties": {
        "station_id": "HP03",
        "station_name": "Hyde Park Environmental Record 3",
        "river_mile": 81.8,
        "region": "Region 8 - Hyde Park",
        "region_name": "Hyde Park",
        "region_code": "HP",
        "region_number": 8,
        "river_mile_range": "77-85",
        "year": 2013,
        "month": 3,
        "day": 19,
        "sample_date": "2013-03-19",
        "environmental_records": 1,
        "mean_temperature_c": 12.23,
        "mean_salinity_psu": 6.07,
        "mean_dissolved_oxygen_mg_l": 10.11,
        "mean_turbidity_ntu": 12.18,
        "mean_chlorophyll_a": 4.04
      }
    },
    {
      "type": "Feature",
      "geometry": {
        "type": "Point",
        "coordinates": [
          -73.92722,
          41.81641
        ]
      },
      "properties": {
        "station_id": "HP04",
        "station_name": "Hyde Park Environmental Record 4",
        "river_mile": 83.4,
        "region": "Region 8 - Hyde Park",
        "region_name": "Hyde Park",
        "region_code": "HP",
        "region_number": 8,
        "river_mile_range": "77-85",
        "year": 2014,
        "month": 4,
        "day": 24,
        "sample_date": "2014-04-24",
        "environmental_records": 1,
        "mean_temperature_c": 14.01,
        "mean_salinity_psu": 5.55,
        "mean_dissolved_oxygen_mg_l": 9.96,
        "mean_turbidity_ntu": 13.19,
        "mean_chlorophyll_a": 4.67
      }
    },
    {
      "type": "Feature",
      "geometry": {
        "type": "Point",
        "coordinates": [
          -73.96425,
          41.85765
        ]
      },
      "properties": {
        "station_id": "KG01",
        "station_name": "Kingston Environmental Record 1",
        "river_mile": 86.8,
        "region": "Region 9 - Kingston",
        "region_name": "Kingston",
        "region_code": "KG",
        "region_number": 9,
        "river_mile_range": "86-93",
        "year": 2013,
        "month": 4,
        "day": 10,
        "sample_date": "2013-04-10",
        "environmental_records": 1,
        "mean_temperature_c": 12.93,
        "mean_salinity_psu": 5.29,
        "mean_dissolved_oxygen_mg_l": 9.72,
        "mean_turbidity_ntu": 10.71,
        "mean_chlorophyll_a": 3.62
      }
    },
    {
      "type": "Feature",
      "geometry": {
        "type": "Point",
        "coordinates": [
          -73.93825,
          41.86795
        ]
      },
      "properties": {
        "station_id": "KG02",
        "station_name": "Kingston Environmental Record 2",
        "river_mile": 87.6,
        "region": "Region 9 - Kingston",
        "region_name": "Kingston",
        "region_code": "KG",
        "region_number": 9,
        "river_mile_range": "86-93",
        "year": 2014,
        "month": 5,
        "day": 15,
        "sample_date": "2014-05-15",
        "environmental_records": 1,
        "mean_temperature_c": 14.72,
        "mean_salinity_psu": 5.43,
        "mean_dissolved_oxygen_mg_l": 9.57,
        "mean_turbidity_ntu": 11.66,
        "mean_chlorophyll_a": 4.25
      }
    },
    {
      "type": "Feature",
      "geometry": {
        "type": "Point",
        "coordinates": [
          -73.97213,
          41.87713
        ]
      },
      "properties": {
        "station_id": "KG03",
        "station_name": "Kingston Environmental Record 3",
        "river_mile": 88.3,
        "region": "Region 9 - Kingston",
        "region_name": "Kingston",
        "region_code": "KG",
        "region_number": 9,
        "river_mile_range": "86-93",
        "year": 2015,
        "month": 6,
        "day": 20,
        "sample_date": "2015-06-20",
        "environmental_records": 1,
        "mean_temperature_c": 16.51,
        "mean_salinity_psu": 5.58,
        "mean_dissolved_oxygen_mg_l": 9.42,
        "mean_turbidity_ntu": 12.61,
        "mean_chlorophyll_a": 4.88
      }
    },
    {
      "type": "Feature",
      "geometry": {
        "type": "Point",
        "coordinates": [
          -73.93412,
          41.88743
        ]
      },
      "properties": {
        "station_id": "KG04",
        "station_name": "Kingston Environmental Record 4",
        "river_mile": 89.1,
        "region": "Region 9 - Kingston",
        "region_name": "Kingston",
        "region_code": "KG",
        "region_number": 9,
        "river_mile_range": "86-93",
        "year": 2016,
        "month": 7,
        "day": 25,
        "sample_date": "2016-07-25",
        "environmental_records": 1,
        "mean_temperature_c": 18.3,
        "mean_salinity_psu": 5.12,
        "mean_dissolved_oxygen_mg_l": 9.27,
        "mean_turbidity_ntu": 13.56,
        "mean_chlorophyll_a": 5.51
      }
    },
    {
      "type": "Feature",
      "geometry": {
        "type": "Point",
        "coordinates": [
          -73.96812,
          41.89773
        ]
      },
      "properties": {
        "station_id": "KG05",
        "station_name": "Kingston Environmental Record 5",
        "river_mile": 89.9,
        "region": "Region 9 - Kingston",
        "region_name": "Kingston",
        "region_code": "KG",
        "region_number": 9,
        "river_mile_range": "86-93",
        "year": 2017,
        "month": 8,
        "day": 2,
        "sample_date": "2017-08-02",
        "environmental_records": 1,
        "mean_temperature_c": 18.7,
        "mean_salinity_psu": 5.26,
        "mean_dissolved_oxygen_mg_l": 9.12,
        "mean_turbidity_ntu": 14.51,
        "mean_chlorophyll_a": 4.74
      }
    },
    {
      "type": "Feature",
      "geometry": {
        "type": "Point",
        "coordinates": [
          -73.94212,
          41.90153
        ]
      },
      "properties": {
        "station_id": "KG06",
        "station_name": "Kingston Environmental Record 6",
        "river_mile": 90.7,
        "region": "Region 9 - Kingston",
        "region_name": "Kingston",
        "region_code": "KG",
        "region_number": 9,
        "river_mile_range": "86-93",
        "year": 2018,
        "month": 9,
        "day": 7,
        "sample_date": "2018-09-07",
        "environmental_records": 1,
        "mean_temperature_c": 20.49,
        "mean_salinity_psu": 5.4,
        "mean_dissolved_oxygen_mg_l": 8.57,
        "mean_turbidity_ntu": 15.47,
        "mean_chlorophyll_a": 5.37
      }
    },
    {
      "type": "Feature",
      "geometry": {
        "type": "Point",
        "coordinates": [
          -73.976,
          41.9107
        ]
      },
      "properties": {
        "station_id": "KG07",
        "station_name": "Kingston Environmental Record 7",
        "river_mile": 91.4,
        "region": "Region 9 - Kingston",
        "region_name": "Kingston",
        "region_code": "KG",
        "region_number": 9,
        "river_mile_range": "86-93",
        "year": 2019,
        "month": 10,
        "day": 12,
        "sample_date": "2019-10-12",
        "environmental_records": 1,
        "mean_temperature_c": 22.28,
        "mean_salinity_psu": 4.94,
        "mean_dissolved_oxygen_mg_l": 8.42,
        "mean_turbidity_ntu": 11.01,
        "mean_chlorophyll_a": 6
      }
    },
    {
      "type": "Feature",
      "geometry": {
        "type": "Point",
        "coordinates": [
          -73.938,
          41.921
        ]
      },
      "properties": {
        "station_id": "KG08",
        "station_name": "Kingston Environmental Record 8",
        "river_mile": 92.2,
        "region": "Region 9 - Kingston",
        "region_name": "Kingston",
        "region_code": "KG",
        "region_number": 9,
        "river_mile_range": "86-93",
        "year": 2020,
        "month": 11,
        "day": 17,
        "sample_date": "2020-11-17",
        "environmental_records": 1,
        "mean_temperature_c": 24.07,
        "mean_salinity_psu": 5.09,
        "mean_dissolved_oxygen_mg_l": 8.27,
        "mean_turbidity_ntu": 11.97,
        "mean_chlorophyll_a": 6.63
      }
    },
    {
      "type": "Feature",
      "geometry": {
        "type": "Point",
        "coordinates": [
          -73.96762,
          41.94932
        ]
      },
      "properties": {
        "station_id": "SG01",
        "station_name": "Saugerties Environmental Record 1",
        "river_mile": 94.9,
        "region": "Region 10 - Saugerties",
        "region_name": "Saugerties",
        "region_code": "SG",
        "region_number": 10,
        "river_mile_range": "94-106",
        "year": 2015,
        "month": 7,
        "day": 11,
        "sample_date": "2015-07-11",
        "environmental_records": 1,
        "mean_temperature_c": 17.2,
        "mean_salinity_psu": 4.68,
        "mean_dissolved_oxygen_mg_l": 9.03,
        "mean_turbidity_ntu": 11.24,
        "mean_chlorophyll_a": 4.46
      }
    },
    {
      "type": "Feature",
      "geometry": {
        "type": "Point",
        "coordinates": [
          -73.93854,
          41.96101
        ]
      },
      "properties": {
        "station_id": "SG02",
        "station_name": "Saugerties Environmental Record 2",
        "river_mile": 95.8,
        "region": "Region 10 - Saugerties",
        "region_name": "Saugerties",
        "region_code": "SG",
        "region_number": 10,
        "river_mile_range": "94-106",
        "year": 2016,
        "month": 8,
        "day": 16,
        "sample_date": "2016-08-16",
        "environmental_records": 1,
        "mean_temperature_c": 18.99,
        "mean_salinity_psu": 4.82,
        "mean_dissolved_oxygen_mg_l": 8.88,
        "mean_turbidity_ntu": 12.2,
        "mean_chlorophyll_a": 5.09
      }
    },
    {
      "type": "Feature",
      "geometry": {
        "type": "Point",
        "coordinates": [
          -73.96923,
          41.97385
        ]
      },
      "properties": {
        "station_id": "SG03",
        "station_name": "Saugerties Environmental Record 3",
        "river_mile": 96.8,
        "region": "Region 10 - Saugerties",
        "region_name": "Saugerties",
        "region_code": "SG",
        "region_number": 10,
        "river_mile_range": "94-106",
        "year": 2017,
        "month": 9,
        "day": 21,
        "sample_date": "2017-09-21",
        "environmental_records": 1,
        "mean_temperature_c": 20.78,
        "mean_salinity_psu": 4.94,
        "mean_dissolved_oxygen_mg_l": 8.73,
        "mean_turbidity_ntu": 13.17,
        "mean_chlorophyll_a": 5.72
      }
    },
    {
      "type": "Feature",
      "geometry": {
        "type": "Point",
        "coordinates": [
          -73.92815,
          41.98553
        ]
      },
      "properties": {
        "station_id": "SG04",
        "station_name": "Saugerties Environmental Record 4",
        "river_mile": 97.7,
        "region": "Region 10 - Saugerties",
        "region_name": "Saugerties",
        "region_code": "SG",
        "region_number": 10,
        "river_mile_range": "94-106",
        "year": 2018,
        "month": 10,
        "day": 26,
        "sample_date": "2018-10-26",
        "environmental_records": 1,
        "mean_temperature_c": 22.57,
        "mean_salinity_psu": 4.47,
        "mean_dissolved_oxygen_mg_l": 8.58,
        "mean_turbidity_ntu": 14.13,
        "mean_chlorophyll_a": 6.35
      }
    },
    {
      "type": "Feature",
      "geometry": {
        "type": "Point",
        "coordinates": [
          -73.95908,
          41.99722
        ]
      },
      "properties": {
        "station_id": "SG05",
        "station_name": "Saugerties Environmental Record 5",
        "river_mile": 98.6,
        "region": "Region 10 - Saugerties",
        "region_name": "Saugerties",
        "region_code": "SG",
        "region_number": 10,
        "river_mile_range": "94-106",
        "year": 2019,
        "month": 11,
        "day": 3,
        "sample_date": "2019-11-03",
        "environmental_records": 1,
        "mean_temperature_c": 22.96,
        "mean_salinity_psu": 4.61,
        "mean_dissolved_oxygen_mg_l": 8.43,
        "mean_turbidity_ntu": 15.09,
        "mean_chlorophyll_a": 5.58
      }
    },
    {
      "type": "Feature",
      "geometry": {
        "type": "Point",
        "coordinates": [
          -73.93,
          42.0024
        ]
      },
      "properties": {
        "station_id": "SG06",
        "station_name": "Saugerties Environmental Record 6",
        "river_mile": 99.5,
        "region": "Region 10 - Saugerties",
        "region_name": "Saugerties",
        "region_code": "SG",
        "region_number": 10,
        "river_mile_range": "94-106",
        "year": 2020,
        "month": 12,
        "day": 8,
        "sample_date": "2020-12-08",
        "environmental_records": 1,
        "mean_temperature_c": 24.75,
        "mean_salinity_psu": 4.74,
        "mean_dissolved_oxygen_mg_l": 7.88,
        "mean_turbidity_ntu": 16.05,
        "mean_chlorophyll_a": 6.21
      }
    },
    {
      "type": "Feature",
      "geometry": {
        "type": "Point",
        "coordinates": [
          -73.96069,
          42.01524
        ]
      },
      "properties": {
        "station_id": "SG07",
        "station_name": "Saugerties Environmental Record 7",
        "river_mile": 100.5,
        "region": "Region 10 - Saugerties",
        "region_name": "Saugerties",
        "region_code": "SG",
        "region_number": 10,
        "river_mile_range": "94-106",
        "year": 2021,
        "month": 1,
        "day": 13,
        "sample_date": "2021-01-13",
        "environmental_records": 1,
        "mean_temperature_c": 9.14,
        "mean_salinity_psu": 4.26,
        "mean_dissolved_oxygen_mg_l": 10.49,
        "mean_turbidity_ntu": 11.61,
        "mean_chlorophyll_a": 3.48
      }
    },
    {
      "type": "Feature",
      "geometry": {
        "type": "Point",
        "coordinates": [
          -73.91962,
          42.02692
        ]
      },
      "properties": {
        "station_id": "SG08",
        "station_name": "Saugerties Environmental Record 8",
        "river_mile": 101.4,
        "region": "Region 10 - Saugerties",
        "region_name": "Saugerties",
        "region_code": "SG",
        "region_number": 10,
        "river_mile_range": "94-106",
        "year": 2022,
        "month": 2,
        "day": 18,
        "sample_date": "2022-02-18",
        "environmental_records": 1,
        "mean_temperature_c": 10.93,
        "mean_salinity_psu": 4.39,
        "mean_dissolved_oxygen_mg_l": 10.34,
        "mean_turbidity_ntu": 12.57,
        "mean_chlorophyll_a": 4.11
      }
    },
    {
      "type": "Feature",
      "geometry": {
        "type": "Point",
        "coordinates": [
          -73.95054,
          42.03861
        ]
      },
      "properties": {
        "station_id": "SG09",
        "station_name": "Saugerties Environmental Record 9",
        "river_mile": 102.3,
        "region": "Region 10 - Saugerties",
        "region_name": "Saugerties",
        "region_code": "SG",
        "region_number": 10,
        "river_mile_range": "94-106",
        "year": 2023,
        "month": 3,
        "day": 23,
        "sample_date": "2023-03-23",
        "environmental_records": 1,
        "mean_temperature_c": 11.32,
        "mean_salinity_psu": 4.53,
        "mean_dissolved_oxygen_mg_l": 10.19,
        "mean_turbidity_ntu": 13.53,
        "mean_chlorophyll_a": 3.34
      }
    },
    {
      "type": "Feature",
      "geometry": {
        "type": "Point",
        "coordinates": [
          -73.92146,
          42.05029
        ]
      },
      "properties": {
        "station_id": "SG10",
        "station_name": "Saugerties Environmental Record 10",
        "river_mile": 103.2,
        "region": "Region 10 - Saugerties",
        "region_name": "Saugerties",
        "region_code": "SG",
        "region_number": 10,
        "river_mile_range": "94-106",
        "year": 2024,
        "month": 4,
        "day": 28,
        "sample_date": "2024-04-28",
        "environmental_records": 1,
        "mean_temperature_c": 13.11,
        "mean_salinity_psu": 4.06,
        "mean_dissolved_oxygen_mg_l": 10.04,
        "mean_turbidity_ntu": 14.49,
        "mean_chlorophyll_a": 3.97
      }
    },
    {
      "type": "Feature",
      "geometry": {
        "type": "Point",
        "coordinates": [
          -73.95215,
          42.05663
        ]
      },
      "properties": {
        "station_id": "SG11",
        "station_name": "Saugerties Environmental Record 11",
        "river_mile": 104.2,
        "region": "Region 10 - Saugerties",
        "region_name": "Saugerties",
        "region_code": "SG",
        "region_number": 10,
        "river_mile_range": "94-106",
        "year": 2010,
        "month": 5,
        "day": 5,
        "sample_date": "2010-05-05",
        "environmental_records": 1,
        "mean_temperature_c": 14.9,
        "mean_salinity_psu": 4.19,
        "mean_dissolved_oxygen_mg_l": 9.49,
        "mean_turbidity_ntu": 15.46,
        "mean_chlorophyll_a": 4.6
      }
    },
    {
      "type": "Feature",
      "geometry": {
        "type": "Point",
        "coordinates": [
          -73.91108,
          42.06832
        ]
      },
      "properties": {
        "station_id": "SG12",
        "station_name": "Saugerties Environmental Record 12",
        "river_mile": 105.1,
        "region": "Region 10 - Saugerties",
        "region_name": "Saugerties",
        "region_code": "SG",
        "region_number": 10,
        "river_mile_range": "94-106",
        "year": 2011,
        "month": 6,
        "day": 10,
        "sample_date": "2011-06-10",
        "environmental_records": 1,
        "mean_temperature_c": 16.69,
        "mean_salinity_psu": 4.32,
        "mean_dissolved_oxygen_mg_l": 9.34,
        "mean_turbidity_ntu": 16.41,
        "mean_chlorophyll_a": 5.23
      }
    },
    {
      "type": "Feature",
      "geometry": {
        "type": "Point",
        "coordinates": [
          -73.8945,
          42.15129
        ]
      },
      "properties": {
        "station_id": "CS01",
        "station_name": "Catskill Environmental Record 1",
        "river_mile": 115.5,
        "region": "Region 11 - Catskill",
        "region_name": "Catskill",
        "region_code": "CS",
        "region_number": 11,
        "river_mile_range": "107-124",
        "year": 2017,
        "month": 10,
        "day": 12,
        "sample_date": "2017-10-12",
        "environmental_records": 1,
        "mean_temperature_c": 21.34,
        "mean_salinity_psu": 3.14,
        "mean_dissolved_oxygen_mg_l": 8.34,
        "mean_turbidity_ntu": 12.6,
        "mean_chlorophyll_a": 5.3
      }
    },
    {
      "type": "Feature",
      "geometry": {
        "type": "Point",
        "coordinates": [
          -73.84057,
          42.27454
        ]
      },
      "properties": {
        "station_id": "AL01",
        "station_name": "Albany Environmental Record 1",
        "river_mile": 128,
        "region": "Region 12 - Albany",
        "region_name": "Albany",
        "region_code": "AL",
        "region_number": 12,
        "river_mile_range": "125-152",
        "year": 2019,
        "month": 1,
        "day": 13,
        "sample_date": "2019-01-13",
        "environmental_records": 1,
        "mean_temperature_c": 8.16,
        "mean_salinity_psu": 2.2,
        "mean_dissolved_oxygen_mg_l": 10.41,
        "mean_turbidity_ntu": 13.42,
        "mean_chlorophyll_a": 2.78
      }
    },
    {
      "type": "Feature",
      "geometry": {
        "type": "Point",
        "coordinates": [
          -73.805,
          42.3187
        ]
      },
      "properties": {
        "station_id": "AL02",
        "station_name": "Albany Environmental Record 2",
        "river_mile": 131,
        "region": "Region 12 - Albany",
        "region_name": "Albany",
        "region_code": "AL",
        "region_number": 12,
        "river_mile_range": "125-152",
        "year": 2020,
        "month": 2,
        "day": 18,
        "sample_date": "2020-02-18",
        "environmental_records": 1,
        "mean_temperature_c": 9.94,
        "mean_salinity_psu": 2.18,
        "mean_dissolved_oxygen_mg_l": 10.26,
        "mean_turbidity_ntu": 14.52,
        "mean_chlorophyll_a": 3.41
      }
    },
    {
      "type": "Feature",
      "geometry": {
        "type": "Point",
        "coordinates": [
          -73.82943,
          42.36286
        ]
      },
      "properties": {
        "station_id": "AL03",
        "station_name": "Albany Environmental Record 3",
        "river_mile": 134,
        "region": "Region 12 - Albany",
        "region_name": "Albany",
        "region_code": "AL",
        "region_number": 12,
        "river_mile_range": "125-152",
        "year": 2021,
        "month": 3,
        "day": 23,
        "sample_date": "2021-03-23",
        "environmental_records": 1,
        "mean_temperature_c": 11.71,
        "mean_salinity_psu": 2.15,
        "mean_dissolved_oxygen_mg_l": 10.11,
        "mean_turbidity_ntu": 15.62,
        "mean_chlorophyll_a": 4.04
      }
    },
    {
      "type": "Feature",
      "geometry": {
        "type": "Point",
        "coordinates": [
          -73.78186,
          42.40701
        ]
      },
      "properties": {
        "station_id": "AL04",
        "station_name": "Albany Environmental Record 4",
        "river_mile": 137,
        "region": "Region 12 - Albany",
        "region_name": "Albany",
        "region_code": "AL",
        "region_number": 12,
        "river_mile_range": "125-152",
        "year": 2022,
        "month": 4,
        "day": 28,
        "sample_date": "2022-04-28",
        "environmental_records": 1,
        "mean_temperature_c": 13.48,
        "mean_salinity_psu": 1.52,
        "mean_dissolved_oxygen_mg_l": 9.96,
        "mean_turbidity_ntu": 16.71,
        "mean_chlorophyll_a": 4.67
      }
    },
    {
      "type": "Feature",
      "geometry": {
        "type": "Point",
        "coordinates": [
          -73.80629,
          42.45117
        ]
      },
      "properties": {
        "station_id": "AL05",
        "station_name": "Albany Environmental Record 5",
        "river_mile": 140,
        "region": "Region 12 - Albany",
        "region_name": "Albany",
        "region_code": "AL",
        "region_number": 12,
        "river_mile_range": "125-152",
        "year": 2023,
        "month": 5,
        "day": 5,
        "sample_date": "2023-05-05",
        "environmental_records": 1,
        "mean_temperature_c": 13.85,
        "mean_salinity_psu": 1.5,
        "mean_dissolved_oxygen_mg_l": 9.81,
        "mean_turbidity_ntu": 17.81,
        "mean_chlorophyll_a": 3.9
      }
    },
    {
      "type": "Feature",
      "geometry": {
        "type": "Point",
        "coordinates": [
          -73.77071,
          42.48883
        ]
      },
      "properties": {
        "station_id": "AL06",
        "station_name": "Albany Environmental Record 6",
        "river_mile": 143,
        "region": "Region 12 - Albany",
        "region_name": "Albany",
        "region_code": "AL",
        "region_number": 12,
        "river_mile_range": "125-152",
        "year": 2024,
        "month": 6,
        "day": 10,
        "sample_date": "2024-06-10",
        "environmental_records": 1,
        "mean_temperature_c": 15.61,
        "mean_salinity_psu": 1.48,
        "mean_dissolved_oxygen_mg_l": 9.26,
        "mean_turbidity_ntu": 18.91,
        "mean_chlorophyll_a": 4.53
      }
    },
    {
      "type": "Feature",
      "geometry": {
        "type": "Point",
        "coordinates": [
          -73.79514,
          42.53299
        ]
      },
      "properties": {
        "station_id": "AL07",
        "station_name": "Albany Environmental Record 7",
        "river_mile": 146,
        "region": "Region 12 - Albany",
        "region_name": "Albany",
        "region_code": "AL",
        "region_number": 12,
        "river_mile_range": "125-152",
        "year": 2010,
        "month": 7,
        "day": 15,
        "sample_date": "2010-07-15",
        "environmental_records": 1,
        "mean_temperature_c": 17.38,
        "mean_salinity_psu": 0.85,
        "mean_dissolved_oxygen_mg_l": 9.11,
        "mean_turbidity_ntu": 14.61,
        "mean_chlorophyll_a": 5.16
      }
    },
    {
      "type": "Feature",
      "geometry": {
        "type": "Point",
        "coordinates": [
          -73.74757,
          42.57714
        ]
      },
      "properties": {
        "station_id": "AL08",
        "station_name": "Albany Environmental Record 8",
        "river_mile": 149,
        "region": "Region 12 - Albany",
        "region_name": "Albany",
        "region_code": "AL",
        "region_number": 12,
        "river_mile_range": "125-152",
        "year": 2011,
        "month": 8,
        "day": 20,
        "sample_date": "2011-08-20",
        "environmental_records": 1,
        "mean_temperature_c": 19.16,
        "mean_salinity_psu": 0.83,
        "mean_dissolved_oxygen_mg_l": 8.96,
        "mean_turbidity_ntu": 15.7,
        "mean_chlorophyll_a": 5.79
      }
    }
  ]
}
